{"type": "FeatureCollection", "features": [{"type": "Feature", "properties": {"segment_id": "1A-01", "subzone_id": "1A", "zone": 1, "street": "E 14th St", "from": "the district edge", "to": "Bowery / 3rd Ave", "label": "E 14th St, the district edge to Bowery / 3rd Ave", "tree_count": 5}, "geometry": {"type": "Polygon", "coordinates": [[[-73.98982617518064, 40.73440110669745], [-73.98733805939895, 40.73335250261829], [-73.98740222219459, 40.73326374854491], [-73.98987845614792, 40.73430734508632], [-73.9898811591607, 40.73432504934752], [-73.98982617518064, 40.73440110669745]]]}}, {"type": "Feature", "properties": {"segment_id": "1A-02", "subzone_id": "1A", "zone": 1, "street": "E 14th St", "from": "Bowery / 3rd Ave", "to": "2nd Ave", "label": "E 14th St, Bowery / 3rd Ave to 2nd Ave", "tree_count": 10}, "geometry": {"type": "Polygon", "coordinates": [[[-73.98702340508828, 40.73321715432556], [-73.98509992107442, 40.732406511509836], [-73.98516104870887, 40.73232195586508], [-73.98708453272273, 40.73313259868081], [-73.98702340508828, 40.73321715432556]]]}}, {"type": "Feature", "properties": {"segment_id": "1A-03", "subzone_id": "1A", "zone": 1, "street": "E 14th St", "from": "2nd Ave", "to": "1st Ave", "label": "E 14th St, 2nd Ave to 1st Ave", "tree_count": 6}, "geometry": {"type": "Polygon", "coordinates": [[[-73.98478165402932, 40.73227616058191], [-73.98273309346108, 40.73141280487151], [-73.98279841140321, 40.73132245292579], [-73.98484697197145, 40.73218580863619], [-73.98478165402932, 40.73227616058191]]]}}, {"type": "Feature", "properties": {"segment_id": "1A-04", "subzone_id": "1A", "zone": 1, "street": "E 13th St", "from": "the district edge", "to": "Bowery / 3rd Ave", "label": "E 13th St, the district edge to Bowery / 3rd Ave", "tree_count": 13}, "geometry": {"type": "Polygon", "coordinates": [[[-73.98983744152343, 40.73359807953386], [-73.9877880826743, 40.732734387391936], [-73.98789373152758, 40.732588247156265], [-73.98989247096905, 40.733430605999416], [-73.9898699659957, 40.7335353755828], [-73.98986736336931, 40.73355668972722], [-73.98983744152343, 40.73359807953386]]]}}, {"type": "Feature", "properties": {"segment_id": "1A-05", "subzone_id": "1A", "zone": 1, "street": "E 13th St", "from": "Bowery / 3rd Ave", "to": "2nd Ave", "label": "E 13th St, Bowery / 3rd Ave to 2nd Ave", "tree_count": 21}, "geometry": {"type": "Polygon", "coordinates": [[[-73.98747697540244, 40.73259413260877], [-73.98555349138859, 40.73178348979304], [-73.98564901100305, 40.731651360966886], [-73.9875724950169, 40.73246200378261], [-73.98747697540244, 40.73259413260877]]]}}, {"type": "Feature", "properties": {"segment_id": "1A-06", "subzone_id": "1A", "zone": 1, "street": "E 13th St", "from": "2nd Ave", "to": "1st Ave", "label": "E 13th St, 2nd Ave to 1st Ave", "tree_count": 9}, "geometry": {"type": "Polygon", "coordinates": [[[-73.98523910641265, 40.73164776893933], [-73.98319054584441, 40.73078441322893], [-73.98328249162823, 40.730657227953365], [-73.98533105219647, 40.731520583663766], [-73.98523910641265, 40.73164776893933]]]}}, {"type": "Feature", "properties": {"segment_id": "1A-07", "subzone_id": "1A", "zone": 1, "street": "E 12th St", "from": "the district edge", "to": "Bowery / 3rd Ave", "label": "E 12th St, the district edge to Bowery / 3rd Ave", "tree_count": 11}, "geometry": {"type": "Polygon", "coordinates": [[[-73.99000925822256, 40.73281828458393], [-73.98826269908555, 40.73208220588171], [-73.98835045265379, 40.73196081954626], [-73.9900543115599, 40.732678902447546], [-73.990036001965, 40.7327624122447], [-73.99003023242949, 40.73278927172246], [-73.99000925822256, 40.73281828458393]]]}}, {"type": "Feature", "properties": {"segment_id": "1A-08", "subzone_id": "1A", "zone": 1, "street": "E 12th St", "from": "Bowery / 3rd Ave", "to": "2nd Ave", "label": "E 12th St, Bowery / 3rd Ave to 2nd Ave", "tree_count": 20}, "geometry": {"type": "Polygon", "coordinates": [[[-73.98794440902435, 40.73195188679113], [-73.9860209250105, 40.7311412439754], [-73.9861129149186, 40.7310139976643], [-73.98803639893246, 40.73182464048002], [-73.98794440902435, 40.73195188679113]]]}}, {"type": "Feature", "properties": {"segment_id": "1A-09", "subzone_id": "1A", "zone": 1, "street": "E 12th St", "from": "2nd Ave", "to": "1st Ave", "label": "E 12th St, 2nd Ave to 1st Ave", "tree_count": 24}, "geometry": {"type": "Polygon", "coordinates": [[[-73.98570199194424, 40.731011814330444], [-73.98365343137598, 40.73014845862005], [-73.9837509436341, 40.73001357344203], [-73.98579950420235, 40.73087692915243], [-73.98570199194424, 40.731011814330444]]]}}, {"type": "Feature", "properties": {"segment_id": "1A-10", "subzone_id": "1A", "zone": 1, "street": "E 11th St", "from": "the district edge", "to": "Bowery / 3rd Ave", "label": "E 11th St, the district edge to Bowery / 3rd Ave", "tree_count": 6}, "geometry": {"type": "Polygon", "coordinates": [[[-73.99018312497444, 40.732062286258895], [-73.98872460665669, 40.731447600934054], [-73.98881921365147, 40.73131673450167], [-73.9902361842522, 40.731913909746844], [-73.9902133543416, 40.7320045951209], [-73.99020752589456, 40.732028533349066], [-73.99018312497444, 40.732062286258895]]]}}, {"type": "Feature", "properties": {"segment_id": "1A-11", "subzone_id": "1A", "zone": 1, "street": "E 11th St", "from": "Bowery / 3rd Ave", "to": "2nd Ave", "label": "E 11th St, Bowery / 3rd Ave to 2nd Ave", "tree_count": 23}, "geometry": {"type": "Polygon", "coordinates": [[[-73.98841001133596, 40.73131217104267], [-73.9864865273221, 40.73050152822694], [-73.98657798117581, 40.73037502342051], [-73.98850146518967, 40.731185666236236], [-73.98841001133596, 40.73131217104267]]]}}, {"type": "Feature", "properties": {"segment_id": "1A-12", "subzone_id": "1A", "zone": 1, "street": "E 11th St", "from": "2nd Ave", "to": "1st Ave", "label": "E 11th St, 2nd Ave to 1st Ave", "tree_count": 30}, "geometry": {"type": "Polygon", "coordinates": [[[-73.9861705335075, 40.73036803282154], [-73.98412197293925, 40.72950467711114], [-73.98421307063965, 40.72937866495869], [-73.9862616312079, 40.73024202066909], [-73.9861705335075, 40.73036803282154]]]}}, {"type": "Feature", "properties": {"segment_id": "1A-13", "subzone_id": "1A", "zone": 1, "street": "Bowery / 3rd Ave", "from": "E 14th St", "to": "E 13th St", "label": "Bowery / 3rd Ave, E 14th St to E 13th St", "tree_count": 6}, "geometry": {"type": "Polygon", "coordinates": [[[-73.98715820523864, 40.73306092310482], [-73.987487011137, 40.73260916097843], [-73.98777013576705, 40.73272929151181], [-73.9874413298687, 40.733181053638205], [-73.98715820523864, 40.73306092310482]]]}}, {"type": "Feature", "properties": {"segment_id": "1A-14", "subzone_id": "1A", "zone": 1, "street": "Bowery / 3rd Ave", "from": "E 13th St", "to": "E 12th St", "label": "Bowery / 3rd Ave, E 13th St to E 12th St", "tree_count": 6}, "geometry": {"type": "Polygon", "coordinates": [[[-73.98759630087356, 40.732460430994315], [-73.9879550943175, 40.73196746754695], [-73.98823663028753, 40.73208692400766], [-73.98787783684361, 40.732579887455024], [-73.98759630087356, 40.732460430994315]]]}}, {"type": "Feature", "properties": {"segment_id": "1A-15", "subzone_id": "1A", "zone": 1, "street": "Bowery / 3rd Ave", "from": "E 12th St", "to": "E 11th St", "label": "Bowery / 3rd Ave, E 12th St to E 11th St", "tree_count": 7}, "geometry": {"type": "Polygon", "coordinates": [[[-73.98805175483217, 40.731819205575796], [-73.98841183387354, 40.731324475784724], [-73.9887105593003, 40.73145122577764], [-73.98835048025894, 40.73194595556871], [-73.98805175483217, 40.731819205575796]]]}}, {"type": "Feature", "properties": {"segment_id": "1A-16", "subzone_id": "1A", "zone": 1, "street": "Bowery / 3rd Ave", "from": "E 11th St", "to": "E 10th St", "label": "Bowery / 3rd Ave, E 11th St to E 10th St", "tree_count": 3}, "geometry": {"type": "Polygon", "coordinates": [[[-73.98913849229434, 40.73084564249515], [-73.98880601295777, 40.731302451733754], [-73.98852689070218, 40.7311840194185], [-73.9888591487818, 40.730727514175385], [-73.98899838243582, 40.730786193509616], [-73.98913849229434, 40.73084564249515]]]}}, {"type": "Feature", "properties": {"segment_id": "1A-17", "subzone_id": "1A", "zone": 1, "street": "2nd Ave", "from": "E 14th St", "to": "E 13th St", "label": "2nd Ave, E 14th St to E 13th St", "tree_count": 1}, "geometry": {"type": "Polygon", "coordinates": [[[-73.98494028922475, 40.73212625550434], [-73.9852690951231, 40.73167449337794], [-73.98550873997073, 40.731776175324015], [-73.98517993407236, 40.73222793745042], [-73.98494028922475, 40.73212625550434]]]}}, {"type": "Feature", "properties": {"segment_id": "1A-18", "subzone_id": "1A", "zone": 1, "street": "2nd Ave", "from": "E 13th St", "to": "E 12th St", "label": "2nd Ave, E 13th St to E 12th St", "tree_count": 6}, "geometry": {"type": "Polygon", "coordinates": [[[-73.98537746526104, 40.731525373205685], [-73.98573625870496, 40.73103240975832], [-73.98597615408984, 40.73113419800802], [-73.9856173606459, 40.731627161455386], [-73.98537746526104, 40.731525373205685]]]}}, {"type": "Feature", "properties": {"segment_id": "1A-19", "subzone_id": "1A", "zone": 1, "street": "2nd Ave", "from": "E 12th St", "to": "E 11th St", "label": "2nd Ave, E 12th St to E 11th St", "tree_count": 6}, "geometry": {"type": "Polygon", "coordinates": [[[-73.9858419794576, 40.73088799207022], [-73.98620205849896, 40.73039326227915], [-73.98644102286465, 40.73049465549494], [-73.9860809438233, 40.73098938528601], [-73.9858419794576, 40.73088799207022]]]}}, {"type": "Feature", "properties": {"segment_id": "1A-20", "subzone_id": "1A", "zone": 1, "street": "2nd Ave", "from": "E 11th St", "to": "E 10th St", "label": "2nd Ave, E 11th St to E 10th St", "tree_count": 8}, "geometry": {"type": "Polygon", "coordinates": [[[-73.98687951878401, 40.72989355408975], [-73.98654703944743, 40.730350363328355], [-73.98630655240227, 40.73024832403563], [-73.98663884122847, 40.729791776548325], [-73.9867587265305, 40.72984230161539], [-73.98687951878401, 40.72989355408975]]]}}, {"type": "Feature", "properties": {"segment_id": "1A-21", "subzone_id": "1A", "zone": 1, "street": "1st Ave", "from": "E 14th St", "to": "E 13th St", "label": "1st Ave, E 14th St to E 13th St", "tree_count": 8}, "geometry": {"type": "Polygon", "coordinates": [[[-73.98254685270426, 40.73113249295634], [-73.98288401197213, 40.73066925373663], [-73.98316435820269, 40.73078820538771], [-73.9828271989348, 40.73125144460742], [-73.98254685270426, 40.73113249295634]]]}}, {"type": "Feature", "properties": {"segment_id": "1A-22", "subzone_id": "1A", "zone": 1, "street": "1st Ave", "from": "E 13th St", "to": "E 12th St", "label": "1st Ave, E 13th St to E 12th St", "tree_count": 9}, "geometry": {"type": "Polygon", "coordinates": [[[-73.98298497511476, 40.73051699075656], [-73.98334376855868, 40.730024027309206], [-73.98363917931711, 40.73014937087952], [-73.98328038587317, 40.73064233432689], [-73.98298497511476, 40.73051699075656]]]}}, {"type": "Feature", "properties": {"segment_id": "1A-23", "subzone_id": "1A", "zone": 1, "street": "1st Ave", "from": "E 12th St", "to": "E 11th St", "label": "1st Ave, E 12th St to E 11th St", "tree_count": 6}, "geometry": {"type": "Polygon", "coordinates": [[[-73.98343531065682, 40.72991401410113], [-73.98383131210356, 40.729369928801766], [-73.98410919376576, 40.729487834729944], [-73.98371319231902, 40.73003192002931], [-73.98343531065682, 40.72991401410113]]]}}, {"type": "Feature", "properties": {"segment_id": "1A-24", "subzone_id": "1A", "zone": 1, "street": "1st Ave", "from": "E 11th St", "to": "E 10th St", "label": "1st Ave, E 11th St to E 10th St", "tree_count": 7}, "geometry": {"type": "Polygon", "coordinates": [[[-73.98453658355696, 40.72890619792464], [-73.98420410422038, 40.72936300716324], [-73.98392002271031, 40.72924247062313], [-73.98425227684329, 40.72878597080251], [-73.98439399406872, 40.72884569682562], [-73.98453658355696, 40.72890619792464]]]}}, {"type": "Feature", "properties": {"segment_id": "1B-01", "subzone_id": "1B", "zone": 1, "street": "E 14th St", "from": "1st Ave", "to": "Ave A", "label": "E 14th St, 1st Ave to Ave A", "tree_count": 4}, "geometry": {"type": "Polygon", "coordinates": [[[-73.98048053206668, 40.730461380276594], [-73.98054352969416, 40.730374237938165], [-73.98248107935463, 40.73119080865103], [-73.9824490749387, 40.73123507920146], [-73.98241792090745, 40.7312778832128], [-73.98048053206668, 40.730461380276594]]]}}, {"type": "Feature", "properties": {"segment_id": "1B-02", "subzone_id": "1B", "zone": 1, "street": "E 14th St", "from": "Ave A", "to": "Ave B", "label": "E 14th St, Ave A to Ave B", "tree_count": 4}, "geometry": {"type": "Polygon", "coordinates": [[[-73.98022285527595, 40.73037005290069], [-73.97822097215358, 40.72952636916878], [-73.97812476580978, 40.72948387524439], [-73.97820582187735, 40.729371753319285], [-73.98030499087334, 40.73025643770103], [-73.98022285527595, 40.73037005290069]]]}}, {"type": "Feature", "properties": {"segment_id": "1B-03", "subzone_id": "1B", "zone": 1, "street": "E 13th St", "from": "1st Ave", "to": "Ave A", "label": "E 13th St, 1st Ave to Ave A", "tree_count": 27}, "geometry": {"type": "Polygon", "coordinates": [[[-73.98093670272846, 40.729834761593054], [-73.98102889164072, 40.72970724000672], [-73.98296632508608, 40.730523761741296], [-73.98289732802277, 40.7306192028822], [-73.98287401583437, 40.730651232611166], [-73.98093670272846, 40.729834761593054]]]}}, {"type": "Feature", "properties": {"segment_id": "1B-04", "subzone_id": "1B", "zone": 1, "street": "E 13th St", "from": "Ave A", "to": "Ave B", "label": "E 13th St, Ave A to Ave B", "tree_count": 34}, "geometry": {"type": "Polygon", "coordinates": [[[-73.98068514448525, 40.72973497065177], [-73.97858597548927, 40.728850286270024], [-73.9786850652764, 40.72871321895321], [-73.98078423427238, 40.729597903334955], [-73.98068514448525, 40.72973497065177]]]}}, {"type": "Feature", "properties": {"segment_id": "1B-05", "subzone_id": "1B", "zone": 1, "street": "E 12th St", "from": "1st Ave", "to": "Ave A", "label": "E 12th St, 1st Ave to Ave A", "tree_count": 29}, "geometry": {"type": "Polygon", "coordinates": [[[-73.98140220220743, 40.72919519120532], [-73.9814947296992, 40.72906720127422], [-73.98343216314456, 40.7298837230088], [-73.98336299678974, 40.729979398324524], [-73.98333951443493, 40.73001166185323], [-73.98140220220743, 40.72919519120532]]]}}, {"type": "Feature", "properties": {"segment_id": "1B-06", "subzone_id": "1B", "zone": 1, "street": "E 12th St", "from": "Ave A", "to": "Ave B", "label": "E 12th St, Ave A to Ave B", "tree_count": 34}, "geometry": {"type": "Polygon", "coordinates": [[[-73.9811523514502, 40.729093038360475], [-73.97905318245422, 40.72820835397873], [-73.97914919584889, 40.72807554212428], [-73.98124836484487, 40.72896022650602], [-73.9811523514502, 40.729093038360475]]]}}, {"type": "Feature", "properties": {"segment_id": "1B-07", "subzone_id": "1B", "zone": 1, "street": "E 11th St", "from": "1st Ave", "to": "Ave A", "label": "E 11th St, 1st Ave to Ave A", "tree_count": 21}, "geometry": {"type": "Polygon", "coordinates": [[[-73.98186050576943, 40.728565571553084], [-73.98196709470601, 40.7284181309342], [-73.98390452815137, 40.72923465266879], [-73.98382833107426, 40.72934005332824], [-73.98379778151543, 40.72938202682606], [-73.98186050576943, 40.728565571553084]]]}}, {"type": "Feature", "properties": {"segment_id": "1B-08", "subzone_id": "1B", "zone": 1, "street": "E 11th St", "from": "Ave A", "to": "Ave B", "label": "E 11th St, Ave A to Ave B", "tree_count": 33}, "geometry": {"type": "Polygon", "coordinates": [[[-73.98162430847071, 40.72845749707159], [-73.97951795565761, 40.727569785105686], [-73.97961509121433, 40.727435421005076], [-73.98172144402743, 40.728323132970985], [-73.98162430847071, 40.72845749707159]]]}}, {"type": "Feature", "properties": {"segment_id": "1B-09", "subzone_id": "1B", "zone": 1, "street": "Ave A", "from": "E 14th St", "to": "E 13th St", "label": "Ave A, E 14th St to E 13th St", "tree_count": 9}, "geometry": {"type": "Polygon", "coordinates": [[[-73.98036617906652, 40.730198548888715], [-73.98069498496487, 40.72974678676232], [-73.98091400619197, 40.729839718051366], [-73.98058520029362, 40.73029148017777], [-73.98036617906652, 40.730198548888715]]]}}, {"type": "Feature", "properties": {"segment_id": "1B-10", "subzone_id": "1B", "zone": 1, "street": "Ave A", "from": "E 13th St", "to": "E 12th St", "label": "Ave A, E 13th St to E 12th St", "tree_count": 10}, "geometry": {"type": "Polygon", "coordinates": [[[-73.98080314258952, 40.72959757642011], [-73.98116193603344, 40.72910461297275], [-73.98138163282437, 40.72919783090533], [-73.98102283938044, 40.72969079435269], [-73.98080314258952, 40.72959757642011]]]}}, {"type": "Feature", "properties": {"segment_id": "1B-11", "subzone_id": "1B", "zone": 1, "street": "Ave A", "from": "E 12th St", "to": "E 11th St", "label": "Ave A, E 12th St to E 11th St", "tree_count": 5}, "geometry": {"type": "Polygon", "coordinates": [[[-73.98126816439338, 40.72896041066378], [-73.98162824343474, 40.72846568087271], [-73.98184599399188, 40.72855807301311], [-73.98148591495053, 40.72905280280418], [-73.98126816439338, 40.72896041066378]]]}}, {"type": "Feature", "properties": {"segment_id": "1B-12", "subzone_id": "1B", "zone": 1, "street": "Ave A", "from": "E 11th St", "to": "E 10th St", "label": "Ave A, E 11th St to E 10th St", "tree_count": 7}, "geometry": {"type": "Polygon", "coordinates": [[[-73.98228701384437, 40.72795804251947], [-73.98195453450779, 40.728414851758075], [-73.98173021340493, 40.72831967171764], [-73.98206251509626, 40.72786310655432], [-73.98217430456117, 40.7279102196709], [-73.98228701384437, 40.72795804251947]]]}}, {"type": "Feature", "properties": {"segment_id": "1B-13", "subzone_id": "1B", "zone": 1, "street": "Ave B", "from": "E 14th St", "to": "E 13th St", "label": "Ave B, E 14th St to E 13th St", "tree_count": 8}, "geometry": {"type": "Polygon", "coordinates": [[[-73.97806652216508, 40.7292294352641], [-73.97839532806343, 40.7287776731377], [-73.97856858208785, 40.72885118528096], [-73.97823977618948, 40.729302947407355], [-73.97806652216508, 40.7292294352641]]]}}, {"type": "Feature", "properties": {"segment_id": "1B-14", "subzone_id": "1B", "zone": 1, "street": "Ave B", "from": "E 13th St", "to": "E 12th St", "label": "Ave B, E 13th St to E 12th St", "tree_count": 8}, "geometry": {"type": "Polygon", "coordinates": [[[-73.9785043254312, 40.728628819100734], [-73.97886311887513, 40.72813585565337], [-73.97903536897712, 40.72820894182967], [-73.9786765755332, 40.728701905277035], [-73.9785043254312, 40.728628819100734]]]}}, {"type": "Feature", "properties": {"segment_id": "1B-15", "subzone_id": "1B", "zone": 1, "street": "Ave B", "from": "E 12th St", "to": "E 11th St", "label": "Ave B, E 12th St to E 11th St", "tree_count": 10}, "geometry": {"type": "Polygon", "coordinates": [[[-73.97896920461302, 40.72799159282949], [-73.9793292836544, 40.72749686303842], [-73.97949987276667, 40.72756924445237], [-73.97913979372531, 40.72806397424344], [-73.97896920461302, 40.72799159282949]]]}}, {"type": "Feature", "properties": {"segment_id": "1B-16", "subzone_id": "1B", "zone": 1, "street": "Ave B", "from": "E 11th St", "to": "E 10th St", "label": "Ave B, E 11th St to E 10th St", "tree_count": 7}, "geometry": {"type": "Polygon", "coordinates": [[[-73.97993926629343, 40.7269685239044], [-73.97960678695685, 40.727425333142996], [-73.9794328799503, 40.72735154393769], [-73.97976522176204, 40.72689492365101], [-73.97985176405726, 40.726931396472914], [-73.97993926629343, 40.7269685239044]]]}}, {"type": "Feature", "properties": {"segment_id": "1C-01", "subzone_id": "1C", "zone": 1, "street": "E 14th St", "from": "Ave B", "to": "Ave C", "label": "E 14th St, Ave B to Ave C", "tree_count": 11}, "geometry": {"type": "Polygon", "coordinates": [[[-73.97579116274837, 40.728487685172105], [-73.9758570598803, 40.72839653205407], [-73.97799906743681, 40.72929927053509], [-73.97796580122586, 40.729345286480886], [-73.97793300098732, 40.72939035229506], [-73.97579116274837, 40.728487685172105]]]}}, {"type": "Feature", "properties": {"segment_id": "1C-02", "subzone_id": "1C", "zone": 1, "street": "E 14th St", "from": "Ave D", "to": "FDR Dr", "label": "E 14th St, Ave D to FDR Dr", "tree_count": 3}, "geometry": {"type": "Polygon", "coordinates": [[[-73.97317829695378, 40.72738317282796], [-73.9720515919626, 40.7268892071481], [-73.9719782890638, 40.7268386165451], [-73.9719138799596, 40.7267992691054], [-73.97188855625235, 40.726784581176894], [-73.9719300716611, 40.72672715441426], [-73.97325030859282, 40.72728356173351], [-73.97317829695378, 40.72738317282796]]]}}, {"type": "Feature", "properties": {"segment_id": "1C-03", "subzone_id": "1C", "zone": 1, "street": "E 13th St", "from": "Ave B", "to": "Ave C", "label": "E 13th St, Ave B to Ave C", "tree_count": 14}, "geometry": {"type": "Polygon", "coordinates": [[[-73.97623949059114, 40.72787191517629], [-73.97635026464587, 40.7277186854349], [-73.97849227220237, 40.728621423915904], [-73.97843656753042, 40.728698478172845], [-73.97838121239987, 40.7287745332303], [-73.97623949059114, 40.72787191517629]]]}}, {"type": "Feature", "properties": {"segment_id": "1C-04", "subzone_id": "1C", "zone": 1, "street": "E 13th St", "from": "Ave C", "to": "Ave D", "label": "E 13th St, Ave C to Ave D", "tree_count": 22}, "geometry": {"type": "Polygon", "coordinates": [[[-73.97602369112998, 40.72776474787553], [-73.97387515979824, 40.726859259981744], [-73.97396795900234, 40.72673089420079], [-73.97611649033408, 40.72763638209457], [-73.97602369112998, 40.72776474787553]]]}}, {"type": "Feature", "properties": {"segment_id": "1C-05", "subzone_id": "1C", "zone": 1, "street": "E 13th St", "from": "Ave D", "to": "FDR Dr", "label": "E 13th St, Ave D to FDR Dr", "tree_count": 3}, "geometry": {"type": "Polygon", "coordinates": [[[-73.97365153676685, 40.72673294300512], [-73.97233129983512, 40.72617653568587], [-73.97238855629023, 40.726097334903436], [-73.97370879322195, 40.72665374222268], [-73.97365153676685, 40.72673294300512]]]}}, {"type": "Feature", "properties": {"segment_id": "1C-06", "subzone_id": "1C", "zone": 1, "street": "E 12th St", "from": "Ave B", "to": "Ave C", "label": "E 12th St, Ave B to Ave C", "tree_count": 26}, "geometry": {"type": "Polygon", "coordinates": [[[-73.97671846911874, 40.72721369970836], [-73.97680262365573, 40.7270972917826], [-73.97894451402192, 40.72799998087432], [-73.97887953415892, 40.728089865167405], [-73.97886025999006, 40.72811634686847], [-73.97671846911874, 40.72721369970836]]]}}, {"type": "Feature", "properties": {"segment_id": "1C-07", "subzone_id": "1C", "zone": 1, "street": "E 12th St", "from": "Ave C", "to": "Ave D", "label": "E 12th St, Ave C to Ave D", "tree_count": 4}, "geometry": {"type": "Polygon", "coordinates": [[[-73.97647910522005, 40.72713912824132], [-73.97433057388831, 40.72623364034754], [-73.97444388244972, 40.72607690471479], [-73.97659241378146, 40.72698239260857], [-73.97647910522005, 40.72713912824132]]]}}, {"type": "Feature", "properties": {"segment_id": "1C-08", "subzone_id": "1C", "zone": 1, "street": "E 12th St", "from": "Ave D", "to": "FDR Dr", "label": "E 12th St, Ave D to FDR Dr", "tree_count": 1}, "geometry": {"type": "Polygon", "coordinates": [[[-73.97416522827997, 40.7261294205856], [-73.97278807897459, 40.725549027828215], [-73.9728631146882, 40.72544523364086], [-73.9742402639936, 40.72602562639825], [-73.97416522827997, 40.7261294205856]]]}}, {"type": "Feature", "properties": {"segment_id": "1C-09", "subzone_id": "1C", "zone": 1, "street": "E 11th St", "from": "Ave B", "to": "Ave C", "label": "E 11th St, Ave B to Ave C", "tree_count": 33}, "geometry": {"type": "Polygon", "coordinates": [[[-73.97718231391018, 40.72657641507396], [-73.9772694474331, 40.72645588642475], [-73.97941133779929, 40.727358575516476], [-73.97934486844413, 40.727450520170166], [-73.97932409705271, 40.727479058976805], [-73.97718231391018, 40.72657641507396]]]}}, {"type": "Feature", "properties": {"segment_id": "1C-10", "subzone_id": "1C", "zone": 1, "street": "Ave C", "from": "E 14th St", "to": "E 13th St", "label": "Ave C, E 14th St to E 13th St", "tree_count": 6}, "geometry": {"type": "Polygon", "coordinates": [[[-73.9756686797938, 40.72821875037839], [-73.97599748569216, 40.72776698825199], [-73.97625898725181, 40.7278779440591], [-73.97593018135345, 40.7283297061855], [-73.9756686797938, 40.72821875037839]]]}}, {"type": "Feature", "properties": {"segment_id": "1C-11", "subzone_id": "1C", "zone": 1, "street": "Ave C", "from": "E 13th St", "to": "E 12th St", "label": "Ave C, E 13th St to E 12th St", "tree_count": 4}, "geometry": {"type": "Polygon", "coordinates": [[[-73.97613952364257, 40.72763215342209], [-73.97649831708651, 40.72713918997473], [-73.97669273355844, 40.72722168140074], [-73.97633394011451, 40.727714644848106], [-73.97613952364257, 40.72763215342209]]]}}, {"type": "Feature", "properties": {"segment_id": "1C-12", "subzone_id": "1C", "zone": 1, "street": "Ave C", "from": "E 12th St", "to": "E 11th St", "label": "Ave C, E 12th St to E 11th St", "tree_count": 2}, "geometry": {"type": "Polygon", "coordinates": [[[-73.97660434665907, 40.726994903319756], [-73.97696442570043, 40.726500173528684], [-73.97715729351333, 40.726582007854546], [-73.97679721447197, 40.72707673764562], [-73.97660434665907, 40.726994903319756]]]}}, {"type": "Feature", "properties": {"segment_id": "1C-13", "subzone_id": "1C", "zone": 1, "street": "Ave C", "from": "E 11th St", "to": "E 10th St", "label": "Ave C, E 11th St to E 10th St", "tree_count": 3}, "geometry": {"type": "Polygon", "coordinates": [[[-73.97756487397487, 40.72602039031816], [-73.97726164605918, 40.72643700963267], [-73.97707058364067, 40.72635594134045], [-73.97737372544138, 40.72593944034343], [-73.97742791629906, 40.72596227881214], [-73.97756487397487, 40.72602039031816]]]}}, {"type": "Feature", "properties": {"segment_id": "1C-14", "subzone_id": "1C", "zone": 1, "street": "Ave D", "from": "E 12th St", "to": "E 11th St", "label": "Ave D, E 12th St to E 11th St", "tree_count": 2}, "geometry": {"type": "Polygon", "coordinates": [[[-73.97421354478573, 40.725987285472975], [-73.97457362382708, 40.7254925556819], [-73.97478485143083, 40.72558218011584], [-73.97442477238947, 40.726076909906915], [-73.97421354478573, 40.725987285472975]]]}}, {"type": "Feature", "properties": {"segment_id": "1C-15", "subzone_id": "1C", "zone": 1, "street": "Ave D", "from": "E 11th St", "to": "E 10th St", "label": "Ave D, E 11th St to E 10th St", "tree_count": 5}, "geometry": {"type": "Polygon", "coordinates": [[[-73.97489041353406, 40.72543769511238], [-73.97467857220995, 40.72534781027526], [-73.97498169747445, 40.72493133199814], [-73.97519387597254, 40.725020753575805], [-73.97489041353406, 40.72543769511238]]]}}, {"type": "Feature", "properties": {"segment_id": "1D-01", "subzone_id": "1D", "zone": 1, "street": "E 10th St", "from": "the district edge", "to": "Bowery / 3rd Ave", "label": "E 10th St, the district edge to Bowery / 3rd Ave", "tree_count": 12}, "geometry": {"type": "Polygon", "coordinates": [[[-73.98926488960984, 40.73070432503615], [-73.99040913680813, 40.73118656235344], [-73.99040040798016, 40.73124125204563], [-73.99032515030736, 40.731345353261105], [-73.9891572896492, 40.730853164168046], [-73.98926488960984, 40.73070432503615]]]}}, {"type": "Feature", "properties": {"segment_id": "1D-02", "subzone_id": "1D", "zone": 1, "street": "E 10th St", "from": "Bowery / 3rd Ave", "to": "2nd Ave", "label": "E 10th St, Bowery / 3rd Ave to 2nd Ave", "tree_count": 26}, "geometry": {"type": "Polygon", "coordinates": [[[-73.98702502986704, 40.7297607151033], [-73.9889485138809, 40.730571357919025], [-73.98884111775794, 40.73071991508964], [-73.98691763374407, 40.72990927227391], [-73.98702502986704, 40.7297607151033]]]}}, {"type": "Feature", "properties": {"segment_id": "1D-03", "subzone_id": "1D", "zone": 1, "street": "E 10th St", "from": "2nd Ave", "to": "1st Ave", "label": "E 10th St, 2nd Ave to 1st Ave", "tree_count": 27}, "geometry": {"type": "Polygon", "coordinates": [[[-73.98660584005104, 40.72976996699233], [-73.9845572794828, 40.72890661128193], [-73.98465323325536, 40.72877388190058], [-73.9867017938236, 40.72963723761098], [-73.98660584005104, 40.72976996699233]]]}}, {"type": "Feature", "properties": {"segment_id": "1D-04", "subzone_id": "1D", "zone": 1, "street": "E 9th St", "from": "the district edge", "to": "Bowery / 3rd Ave", "label": "E 9th St, the district edge to Bowery / 3rd Ave", "tree_count": 7}, "geometry": {"type": "Polygon", "coordinates": [[[-73.99045243320651, 40.730622612313326], [-73.98958969145995, 40.7302590140751], [-73.98968311034754, 40.73012979110841], [-73.99053416546587, 40.730488464075016], [-73.99052204523299, 40.73052632051611], [-73.99045243320651, 40.730622612313326]]]}}, {"type": "Feature", "properties": {"segment_id": "1D-05", "subzone_id": "1D", "zone": 1, "street": "E 9th St", "from": "Bowery / 3rd Ave", "to": "2nd Ave", "label": "E 9th St, Bowery / 3rd Ave to 2nd Ave", "tree_count": 9}, "geometry": {"type": "Polygon", "coordinates": [[[-73.989273964762, 40.73012514917689], [-73.98735048074815, 40.72931450636116], [-73.9874430092491, 40.72918651503407], [-73.98936649326296, 40.729997157849795], [-73.989273964762, 40.73012514917689]]]}}, {"type": "Feature", "properties": {"segment_id": "1D-06", "subzone_id": "1D", "zone": 1, "street": "E 9th St", "from": "2nd Ave", "to": "1st Ave", "label": "E 9th St, 2nd Ave to 1st Ave", "tree_count": 15}, "geometry": {"type": "Polygon", "coordinates": [[[-73.98703133544795, 40.72918537029173], [-73.98498277487971, 40.72832201458134], [-73.98508125019853, 40.728185797236286], [-73.98712981076677, 40.72904915294668], [-73.98703133544795, 40.72918537029173]]]}}, {"type": "Feature", "properties": {"segment_id": "1D-07", "subzone_id": "1D", "zone": 1, "street": "E 8th St / St Marks Pl", "from": "the district edge", "to": "Bowery / 3rd Ave", "label": "E 8th St / St Marks Pl, the district edge to Bowery / 3rd Ave", "tree_count": 5}, "geometry": {"type": "Polygon", "coordinates": [[[-73.99067905195093, 40.729967780678315], [-73.99000769581477, 40.72968484095817], [-73.99013182052919, 40.72951314373236], [-73.99077296867972, 40.729783352446496], [-73.990726748752, 40.7298869477596], [-73.99071821172745, 40.729913612376514], [-73.99067905195093, 40.729967780678315]]]}}, {"type": "Feature", "properties": {"segment_id": "1D-08", "subzone_id": "1D", "zone": 1, "street": "E 8th St / St Marks Pl", "from": "Bowery / 3rd Ave", "to": "2nd Ave", "label": "E 8th St / St Marks Pl, Bowery / 3rd Ave to 2nd Ave", "tree_count": 23}, "geometry": {"type": "Polygon", "coordinates": [[[-73.98970852882913, 40.72952806960918], [-73.98778504481525, 40.72871742679345], [-73.98787515971846, 40.72859277410881], [-73.98979864373231, 40.729403416924534], [-73.98970852882913, 40.72952806960918]]]}}, {"type": "Feature", "properties": {"segment_id": "1D-09", "subzone_id": "1D", "zone": 1, "street": "E 8th St / St Marks Pl", "from": "2nd Ave", "to": "1st Ave", "label": "E 8th St / St Marks Pl, 2nd Ave to 1st Ave", "tree_count": 32}, "geometry": {"type": "Polygon", "coordinates": [[[-73.9874700239101, 40.728582585597614], [-73.98542146334186, 40.727719229887214], [-73.98550927627285, 40.72759776143743], [-73.98755783684109, 40.72846111714783], [-73.9874700239101, 40.728582585597614]]]}}, {"type": "Feature", "properties": {"segment_id": "1D-10", "subzone_id": "1D", "zone": 1, "street": "Bowery / 3rd Ave", "from": "E 10th St", "to": "E 9th St", "label": "Bowery / 3rd Ave, E 10th St to E 9th St", "tree_count": 4}, "geometry": {"type": "Polygon", "coordinates": [[[-73.98896466175054, 40.730582610448636], [-73.98928616267754, 40.730140884971235], [-73.98956521199564, 40.730259286338914], [-73.98924371106864, 40.73070101181631], [-73.98896466175054, 40.730582610448636]]]}}, {"type": "Feature", "properties": {"segment_id": "1D-11", "subzone_id": "1D", "zone": 1, "street": "Bowery / 3rd Ave", "from": "E 9th St", "to": "E 8th St / St Marks Pl", "label": "Bowery / 3rd Ave, E 9th St to E 8th St / St Marks Pl", "tree_count": 2}, "geometry": {"type": "Polygon", "coordinates": [[[-73.98939119240231, 40.729996174078174], [-73.98971929442749, 40.72954537903674], [-73.98999879478215, 40.72966397178043], [-73.98967069275697, 40.73011476682187], [-73.98939119240231, 40.729996174078174]]]}}, {"type": "Feature", "properties": {"segment_id": "1D-12", "subzone_id": "1D", "zone": 1, "street": "Bowery / 3rd Ave", "from": "E 8th St / St Marks Pl", "to": "E 7th St", "label": "Bowery / 3rd Ave, E 8th St / St Marks Pl to E 7th St", "tree_count": 4}, "geometry": {"type": "Polygon", "coordinates": [[[-73.98982598685927, 40.729401373634694], [-73.99015102787871, 40.728954784255244], [-73.99024806862172, 40.728995681596], [-73.99042780806386, 40.72907194551924], [-73.99010261283645, 40.72951874677238], [-73.98982598685927, 40.729401373634694]]]}}, {"type": "Feature", "properties": {"segment_id": "1D-13", "subzone_id": "1D", "zone": 1, "street": "2nd Ave", "from": "E 10th St", "to": "E 9th St", "label": "2nd Ave, E 10th St to E 9th St", "tree_count": 4}, "geometry": {"type": "Polygon", "coordinates": [[[-73.98671816178434, 40.72963581460118], [-73.98703966271134, 40.72919408912378], [-73.9873324001516, 40.7293182983981], [-73.9870108992246, 40.72976002387549], [-73.98671816178434, 40.72963581460118]]]}}, {"type": "Feature", "properties": {"segment_id": "1D-14", "subzone_id": "1D", "zone": 1, "street": "2nd Ave", "from": "E 9th St", "to": "E 8th St / St Marks Pl", "label": "2nd Ave, E 9th St to E 8th St / St Marks Pl", "tree_count": 2}, "geometry": {"type": "Polygon", "coordinates": [[[-73.98716994080885, 40.72906009118242], [-73.98749804283405, 40.72860929614099], [-73.98774073456536, 40.72871227088792], [-73.98741263254018, 40.729163065929356], [-73.98716994080885, 40.72906009118242]]]}}, {"type": "Feature", "properties": {"segment_id": "1D-15", "subzone_id": "1D", "zone": 1, "street": "2nd Ave", "from": "E 8th St / St Marks Pl", "to": "E 7th St", "label": "2nd Ave, E 8th St / St Marks Pl to E 7th St", "tree_count": 7}, "geometry": {"type": "Polygon", "coordinates": [[[-73.98760295372128, 40.72846453482485], [-73.98792802119809, 40.728017909094355], [-73.98809139745677, 40.72808676320981], [-73.98817166126311, 40.72812081935626], [-73.98784633416422, 40.72856780179395], [-73.98760295372128, 40.72846453482485]]]}}, {"type": "Feature", "properties": {"segment_id": "1D-16", "subzone_id": "1D", "zone": 1, "street": "1st Ave", "from": "E 10th St", "to": "E 9th St", "label": "1st Ave, E 10th St to E 9th St", "tree_count": 9}, "geometry": {"type": "Polygon", "coordinates": [[[-73.98435569695407, 40.728647711894894], [-73.98468139080178, 40.72820022556349], [-73.98496120714216, 40.72831895238077], [-73.98463551329445, 40.728766438712164], [-73.98435569695407, 40.728647711894894]]]}}, {"type": "Feature", "properties": {"segment_id": "1D-17", "subzone_id": "1D", "zone": 1, "street": "1st Ave", "from": "E 9th St", "to": "E 8th St / St Marks Pl", "label": "1st Ave, E 9th St to E 8th St / St Marks Pl", "tree_count": 6}, "geometry": {"type": "Polygon", "coordinates": [[[-73.9847848638417, 40.72805485416491], [-73.98511296586688, 40.72760405912347], [-73.98539634661353, 40.727724298327814], [-73.98506824458835, 40.728175093369245], [-73.9847848638417, 40.72805485416491]]]}}, {"type": "Feature", "properties": {"segment_id": "1D-18", "subzone_id": "1D", "zone": 1, "street": "1st Ave", "from": "E 8th St / St Marks Pl", "to": "E 7th St", "label": "1st Ave, E 8th St / St Marks Pl to E 7th St", "tree_count": 8}, "geometry": {"type": "Polygon", "coordinates": [[[-73.98520826864254, 40.72745918540126], [-73.98553549650914, 40.72700959140803], [-73.98572666499791, 40.72709015842127], [-73.98583467686827, 40.72713598814507], [-73.98550714521478, 40.727585999525594], [-73.98520826864254, 40.72745918540126]]]}}, {"type": "Feature", "properties": {"segment_id": "1E-01", "subzone_id": "1E", "zone": 1, "street": "E 10th St", "from": "1st Ave", "to": "Ave A", "label": "E 10th St, 1st Ave to Ave A", "tree_count": 26}, "geometry": {"type": "Polygon", "coordinates": [[[-73.98230801622263, 40.72795062449727], [-73.98239505341206, 40.72783022910271], [-73.98433260307253, 40.72864679981557], [-73.98428857887457, 40.72870769689552], [-73.98424534269435, 40.728767101148335], [-73.98230801622263, 40.72795062449727]]]}}, {"type": "Feature", "properties": {"segment_id": "1E-02", "subzone_id": "1E", "zone": 1, "street": "E 10th St", "from": "Ave A", "to": "Ave B", "label": "E 10th St, Ave A to Ave B", "tree_count": 24}, "geometry": {"type": "Polygon", "coordinates": [[[-73.98205735802233, 40.7278495885592], [-73.97995818902635, 40.72696490417746], [-73.98005032700483, 40.72683745304599], [-73.98214949600082, 40.727722137427726], [-73.98205735802233, 40.7278495885592]]]}}, {"type": "Feature", "properties": {"segment_id": "1E-03", "subzone_id": "1E", "zone": 1, "street": "E 9th St", "from": "1st Ave", "to": "Ave A", "label": "E 9th St, 1st Ave to Ave A", "tree_count": 22}, "geometry": {"type": "Polygon", "coordinates": [[[-73.98273131859469, 40.727369061328595], [-73.9828252633801, 40.72723911090648], [-73.98476281304056, 40.728055681619345], [-73.98471533504464, 40.72812135621305], [-73.98466862714511, 40.72818553042681], [-73.98273131859469, 40.727369061328595]]]}}, {"type": "Feature", "properties": {"segment_id": "1E-04", "subzone_id": "1E", "zone": 1, "street": "E 9th St", "from": "Ave A", "to": "Ave B", "label": "E 9th St, Ave A to Ave B", "tree_count": 1}, "geometry": {"type": "Polygon", "coordinates": [[[-73.98248176763002, 40.72726649379156], [-73.98033104136604, 40.72636008085445], [-73.98042787246925, 40.72622613789336], [-73.98257859873323, 40.727132550830476], [-73.98248176763002, 40.72726649379156]]]}}, {"type": "Feature", "properties": {"segment_id": "1E-05", "subzone_id": "1E", "zone": 1, "street": "E 8th St / St Marks Pl", "from": "1st Ave", "to": "Ave A", "label": "E 8th St / St Marks Pl, 1st Ave to Ave A", "tree_count": 17}, "geometry": {"type": "Polygon", "coordinates": [[[-73.98316687014086, 40.72677061581685], [-73.98325642637039, 40.726646735925264], [-73.98519385981575, 40.72746325765984], [-73.98512617909371, 40.72755687795352], [-73.9851041900771, 40.727587089713566], [-73.98316687014086, 40.72677061581685]]]}}, {"type": "Feature", "properties": {"segment_id": "1E-06", "subzone_id": "1E", "zone": 1, "street": "Ave A", "from": "E 10th St", "to": "E 9th St", "label": "Ave A, E 10th St to E 9th St", "tree_count": 8}, "geometry": {"type": "Polygon", "coordinates": [[[-73.98217015788101, 40.72771918493893], [-73.98249165880802, 40.72727745946153], [-73.98271156011796, 40.72737076417208], [-73.98239005919096, 40.72781248964947], [-73.98217015788101, 40.72771918493893]]]}}, {"type": "Feature", "properties": {"segment_id": "1E-07", "subzone_id": "1E", "zone": 1, "street": "Ave A", "from": "E 9th St", "to": "E 8th St / St Marks Pl", "label": "Ave A, E 9th St to E 8th St / St Marks Pl", "tree_count": 5}, "geometry": {"type": "Polygon", "coordinates": [[[-73.98259724524667, 40.72713298478366], [-73.98292534727186, 40.72668218974223], [-73.98314458619058, 40.72677521339841], [-73.9828164841654, 40.72722600843984], [-73.98259724524667, 40.72713298478366]]]}}, {"type": "Feature", "properties": {"segment_id": "1E-08", "subzone_id": "1E", "zone": 1, "street": "Ave A", "from": "E 8th St / St Marks Pl", "to": "E 7th St", "label": "Ave A, E 8th St / St Marks Pl to E 7th St", "tree_count": 5}, "geometry": {"type": "Polygon", "coordinates": [[[-73.98303103379531, 40.7265377575306], [-73.98337079852732, 40.72607093853929], [-73.98347961088832, 40.726116796970175], [-73.98358934779952, 40.72616335863339], [-73.9832494101532, 40.72663041519993], [-73.98303103379531, 40.7265377575306]]]}}, {"type": "Feature", "properties": {"segment_id": "1E-09", "subzone_id": "1E", "zone": 1, "street": "Ave B", "from": "E 10th St", "to": "E 9th St", "label": "Ave B, E 10th St to E 9th St", "tree_count": 6}, "geometry": {"type": "Polygon", "coordinates": [[[-73.9798648779915, 40.726747685465526], [-73.9801863789185, 40.72630595998813], [-73.9803717590019, 40.72638461725045], [-73.9800502580749, 40.72682634272785], [-73.9798648779915, 40.726747685465526]]]}}, {"type": "Feature", "properties": {"segment_id": "1E-10", "subzone_id": "1E", "zone": 1, "street": "Ave B", "from": "E 9th St", "to": "E 8th St / St Marks Pl", "label": "Ave B, E 9th St to E 8th St / St Marks Pl", "tree_count": 6}, "geometry": {"type": "Polygon", "coordinates": [[[-73.98029557398509, 40.726163016460674], [-73.98062367601027, 40.72571222141924], [-73.98080117644659, 40.72578753532636], [-73.98047307442141, 40.7262383303678], [-73.98029557398509, 40.726163016460674]]]}}, {"type": "Feature", "properties": {"segment_id": "1E-11", "subzone_id": "1E", "zone": 1, "street": "Ave B", "from": "E 8th St / St Marks Pl", "to": "E 7th St", "label": "Ave B, E 8th St / St Marks Pl to E 7th St", "tree_count": 6}, "geometry": {"type": "Polygon", "coordinates": [[[-73.98072958967475, 40.725567885584155], [-73.98106938798449, 40.7251010204588], [-73.98115707038613, 40.72513797377291], [-73.98124571091452, 40.72517558418481], [-73.9809057732682, 40.725642640751346], [-73.98072958967475, 40.725567885584155]]]}}, {"type": "Feature", "properties": {"segment_id": "1F-01", "subzone_id": "1F", "zone": 1, "street": "E 10th St", "from": "Ave B", "to": "Ave C", "label": "E 10th St, Ave B to Ave C", "tree_count": 37}, "geometry": {"type": "Polygon", "coordinates": [[[-73.97761695733605, 40.725979266511416], [-73.97771027316648, 40.725850186099976], [-73.97985228072298, 40.72675292458098], [-73.9798053051628, 40.72681790417348], [-73.979758724439, 40.72688190365446], [-73.97761695733605, 40.725979266511416]]]}}, {"type": "Feature", "properties": {"segment_id": "1F-02", "subzone_id": "1F", "zone": 1, "street": "E 10th St", "from": "Ave C", "to": "Ave D", "label": "E 10th St, Ave C to Ave D", "tree_count": 15}, "geometry": {"type": "Polygon", "coordinates": [[[-73.97737564202278, 40.72590739436557], [-73.97522711069104, 40.72500190647179], [-73.97535348337506, 40.724827099710964], [-73.9775020147068, 40.72573258760475], [-73.97737564202278, 40.72590739436557]]]}}, {"type": "Feature", "properties": {"segment_id": "1F-03", "subzone_id": "1F", "zone": 1, "street": "E 10th St", "from": "Ave D", "to": "FDR Dr", "label": "E 10th St, Ave D to FDR Dr", "tree_count": 10}, "geometry": {"type": "Polygon", "coordinates": [[[-73.97498533660006, 40.72490069719907], [-73.97366509966832, 40.724344289879824], [-73.97379223172254, 40.724168432709696], [-73.97511246865426, 40.72472484002894], [-73.97498533660006, 40.72490069719907]]]}}, {"type": "Feature", "properties": {"segment_id": "1F-04", "subzone_id": "1F", "zone": 1, "street": "E 9th St", "from": "Ave B", "to": "Ave C", "label": "E 9th St, Ave B to Ave C", "tree_count": 34}, "geometry": {"type": "Polygon", "coordinates": [[[-73.97804774028738, 40.72538735572814], [-73.97813300255524, 40.725269415518355], [-73.98027489292143, 40.72617210461008], [-73.98020935919499, 40.72626275504242], [-73.98018952828477, 40.726290001677036], [-73.97804774028738, 40.72538735572814]]]}}, {"type": "Feature", "properties": {"segment_id": "1F-05", "subzone_id": "1F", "zone": 1, "street": "E 9th St", "from": "Ave C", "to": "Ave D", "label": "E 9th St, Ave C to Ave D", "tree_count": 36}, "geometry": {"type": "Polygon", "coordinates": [[[-73.97781916888025, 40.72529785539808], [-73.9756706375485, 40.724392367504294], [-73.97576346885768, 40.72426395731356], [-73.97791200018942, 40.72516944520735], [-73.97781916888025, 40.72529785539808]]]}}, {"type": "Feature", "properties": {"segment_id": "1F-06", "subzone_id": "1F", "zone": 1, "street": "E 8th St / St Marks Pl", "from": "Ave B", "to": "Ave C", "label": "E 8th St / St Marks Pl, Ave B to Ave C", "tree_count": 33}, "geometry": {"type": "Polygon", "coordinates": [[[-73.97847987059237, 40.724793642695516], [-73.97856758678672, 40.724672308058004], [-73.9807094771529, 40.72557499714973], [-73.98064271646236, 40.72566734479713], [-73.98062165222319, 40.72569628596126], [-73.97847987059237, 40.724793642695516]]]}}, {"type": "Feature", "properties": {"segment_id": "1F-07", "subzone_id": "1F", "zone": 1, "street": "E 8th St / St Marks Pl", "from": "Ave C", "to": "Ave D", "label": "E 8th St / St Marks Pl, Ave C to Ave D", "tree_count": 43}, "geometry": {"type": "Polygon", "coordinates": [[[-73.97825236215837, 40.72470267199318], [-73.97610383082663, 40.723797184099396], [-73.97619699011602, 40.72366832022549], [-73.97834552144775, 40.724573808119274], [-73.97825236215837, 40.72470267199318]]]}}, {"type": "Feature", "properties": {"segment_id": "1F-08", "subzone_id": "1F", "zone": 1, "street": "Ave C", "from": "E 10th St", "to": "E 9th St", "label": "Ave C, E 10th St to E 9th St", "tree_count": 7}, "geometry": {"type": "Polygon", "coordinates": [[[-73.97750333224272, 40.725752401333246], [-73.97782483316972, 40.72531067585585], [-73.97802586754338, 40.72539597527516], [-73.97770436661638, 40.72583770075256], [-73.97750333224272, 40.725752401333246]]]}}, {"type": "Feature", "properties": {"segment_id": "1F-09", "subzone_id": "1F", "zone": 1, "street": "Ave C", "from": "E 9th St", "to": "E 8th St / St Marks Pl", "label": "Ave C, E 9th St to E 8th St / St Marks Pl", "tree_count": 10}, "geometry": {"type": "Polygon", "coordinates": [[[-73.97792920870954, 40.72516568739039], [-73.97825731073473, 40.72471489234895], [-73.97846010451482, 40.72480093828909], [-73.97813200248964, 40.72525173333052], [-73.97792920870954, 40.72516568739039]]]}}, {"type": "Feature", "properties": {"segment_id": "1F-10", "subzone_id": "1F", "zone": 1, "street": "Ave C", "from": "E 8th St / St Marks Pl", "to": "E 7th St", "label": "Ave C, E 8th St / St Marks Pl to E 7th St", "tree_count": 2}, "geometry": {"type": "Polygon", "coordinates": [[[-73.9789015309578, 40.724187668404284], [-73.97856159331148, 40.72465472497082], [-73.97836633242416, 40.72457187525711], [-73.97870611555184, 40.72410503099109], [-73.97880335178462, 40.72414601072004], [-73.9789015309578, 40.724187668404284]]]}}, {"type": "Feature", "properties": {"segment_id": "1F-11", "subzone_id": "1F", "zone": 1, "street": "Ave D", "from": "E 10th St", "to": "E 9th St", "label": "Ave D, E 10th St to E 9th St", "tree_count": 6}, "geometry": {"type": "Polygon", "coordinates": [[[-73.97511729136866, 40.724746803591124], [-73.97543879229566, 40.72430507811373], [-73.9756486644616, 40.72439412743181], [-73.97532716353459, 40.7248358529092], [-73.97511729136866, 40.724746803591124]]]}}, {"type": "Feature", "properties": {"segment_id": "1F-12", "subzone_id": "1F", "zone": 1, "street": "Ave D", "from": "E 9th St", "to": "E 8th St / St Marks Pl", "label": "Ave D, E 9th St to E 8th St / St Marks Pl", "tree_count": 7}, "geometry": {"type": "Polygon", "coordinates": [[[-73.97554042536483, 40.72415892601067], [-73.97586852739, 40.723708130969236], [-73.9760856439037, 40.72380025408333], [-73.97575754187852, 40.72425104912476], [-73.97554042536483, 40.72415892601067]]]}}, {"type": "Feature", "properties": {"segment_id": "1F-13", "subzone_id": "1F", "zone": 1, "street": "Ave D", "from": "E 8th St / St Marks Pl", "to": "E 7th St", "label": "Ave D, E 8th St / St Marks Pl to E 7th St", "tree_count": 3}, "geometry": {"type": "Polygon", "coordinates": [[[-73.97652624892609, 40.72318663566758], [-73.97618631127978, 40.72365369223412], [-73.97597837050002, 40.72356546240834], [-73.97631814353684, 40.72309863200665], [-73.97642172980527, 40.72314228792669], [-73.97652624892609, 40.72318663566758]]]}}, {"type": "Feature", "properties": {"segment_id": "1F-14", "subzone_id": "1F", "zone": 1, "street": "FDR Dr", "from": "E 11th St", "to": "E 10th St", "label": "FDR Dr, E 11th St to E 10th St", "tree_count": 3}, "geometry": {"type": "Polygon", "coordinates": [[[-73.97346559630718, 40.72429201318645], [-73.97349869631493, 40.72424653550505], [-73.97367163761503, 40.72431991495855], [-73.97363860930118, 40.72436529413627], [-73.97359349341372, 40.72434628026884], [-73.97346559630718, 40.72429201318645]]]}}, {"type": "Feature", "properties": {"segment_id": "1F-15", "subzone_id": "1F", "zone": 1, "street": "FDR Dr", "from": "E 10th St", "to": "E 9th St", "label": "FDR Dr, E 10th St to E 9th St", "tree_count": 6}, "geometry": {"type": "Polygon", "coordinates": [[[-73.97358188913529, 40.72410304390256], [-73.97390524013059, 40.72365877652796], [-73.97411064522255, 40.72374593045466], [-73.97378729422724, 40.724190197829266], [-73.97358188913529, 40.72410304390256]]]}}, {"type": "Feature", "properties": {"segment_id": "1G-01", "subzone_id": "1G", "zone": 1, "street": "E 7th St", "from": "the district edge", "to": "Bowery / 3rd Ave", "label": "E 7th St, the district edge to Bowery / 3rd Ave", "tree_count": 2}, "geometry": {"type": "Polygon", "coordinates": [[[-73.99092272569237, 40.729241641836325], [-73.99046925578898, 40.729050529190374], [-73.99056064633369, 40.728924111956985], [-73.9910015763007, 40.72910993970882], [-73.99099132355144, 40.729146752900185], [-73.99092272569237, 40.729241641836325]]]}}, {"type": "Feature", "properties": {"segment_id": "1G-02", "subzone_id": "1G", "zone": 1, "street": "E 7th St", "from": "Bowery / 3rd Ave", "to": "2nd Ave", "label": "E 7th St, Bowery / 3rd Ave to 2nd Ave", "tree_count": 17}, "geometry": {"type": "Polygon", "coordinates": [[[-73.99015311393764, 40.72891723855883], [-73.98822962992378, 40.72810659574311], [-73.98832096038865, 40.72798026161598], [-73.9902444444025, 40.728790904431705], [-73.99015311393764, 40.72891723855883]]]}}, {"type": "Feature", "properties": {"segment_id": "1G-03", "subzone_id": "1G", "zone": 1, "street": "E 7th St", "from": "2nd Ave", "to": "1st Ave", "label": "E 7th St, 2nd Ave to 1st Ave", "tree_count": 30}, "geometry": {"type": "Polygon", "coordinates": [[[-73.98791410562471, 40.72797245087386], [-73.98586554505647, 40.727109095163456], [-73.98595558033696, 40.726984552618006], [-73.9880041409052, 40.72784790832841], [-73.98791410562471, 40.72797245087386]]]}}, {"type": "Feature", "properties": {"segment_id": "1G-04", "subzone_id": "1G", "zone": 1, "street": "E 6th St", "from": "Bowery / 3rd Ave", "to": "2nd Ave", "label": "E 6th St, Bowery / 3rd Ave to 2nd Ave", "tree_count": 20}, "geometry": {"type": "Polygon", "coordinates": [[[-73.99057626835084, 40.72833584455975], [-73.98865278433698, 40.72752520174403], [-73.98874369780579, 40.72739944443247], [-73.99066718181965, 40.72821008724819], [-73.99057626835084, 40.72833584455975]]]}}, {"type": "Feature", "properties": {"segment_id": "1G-05", "subzone_id": "1G", "zone": 1, "street": "E 6th St", "from": "2nd Ave", "to": "1st Ave", "label": "E 6th St, 2nd Ave to 1st Ave", "tree_count": 20}, "geometry": {"type": "Polygon", "coordinates": [[[-73.98833345502682, 40.72739632020892], [-73.98628489445858, 40.72653296449852], [-73.98638212276518, 40.72639847210036], [-73.98843068333342, 40.72726182781076], [-73.98833345502682, 40.72739632020892]]]}}, {"type": "Feature", "properties": {"segment_id": "1G-06", "subzone_id": "1G", "zone": 1, "street": "E 5th St", "from": "Bowery / 3rd Ave", "to": "2nd Ave", "label": "E 5th St, Bowery / 3rd Ave to 2nd Ave", "tree_count": 24}, "geometry": {"type": "Polygon", "coordinates": [[[-73.99101392078839, 40.727734592954214], [-73.98909043677453, 40.726923950138485], [-73.98919422676536, 40.726780381199966], [-73.99111771077922, 40.727591024015695], [-73.99101392078839, 40.727734592954214]]]}}, {"type": "Feature", "properties": {"segment_id": "1G-07", "subzone_id": "1G", "zone": 1, "street": "E 5th St", "from": "2nd Ave", "to": "1st Ave", "label": "E 5th St, 2nd Ave to 1st Ave", "tree_count": 19}, "geometry": {"type": "Polygon", "coordinates": [[[-73.9887632369138, 40.72680595565118], [-73.98671467634556, 40.72594259994078], [-73.98684052227533, 40.72576852182006], [-73.98888908284357, 40.72663187753045], [-73.9887632369138, 40.72680595565118]]]}}, {"type": "Feature", "properties": {"segment_id": "1G-08", "subzone_id": "1G", "zone": 1, "street": "Bowery / 3rd Ave", "from": "E 6th St", "to": "E 5th St", "label": "Bowery / 3rd Ave, E 6th St to E 5th St", "tree_count": 2}, "geometry": {"type": "Polygon", "coordinates": [[[-73.99069625217867, 40.728208037975705], [-73.99103374800012, 40.727744336348955], [-73.9912808659401, 40.727849189147996], [-73.99126604434971, 40.72791788923055], [-73.99097024957396, 40.72832429579911], [-73.99069625217867, 40.728208037975705]]]}}, {"type": "Feature", "properties": {"segment_id": "1G-09", "subzone_id": "1G", "zone": 1, "street": "Bowery / 3rd Ave", "from": "E 5th St", "to": "E 4th St", "label": "Bowery / 3rd Ave, E 5th St to E 4th St", "tree_count": 3}, "geometry": {"type": "Polygon", "coordinates": [[[-73.99110483325366, 40.727583325895495], [-73.99133224369513, 40.72727087582961], [-73.99146304076676, 40.72732637337491], [-73.9913904280946, 40.7275059609356], [-73.9913543343325, 40.7275656578666], [-73.99128770331276, 40.72766091814784], [-73.99110483325366, 40.727583325895495]]]}}, {"type": "Feature", "properties": {"segment_id": "1G-10", "subzone_id": "1G", "zone": 1, "street": "2nd Ave", "from": "E 7th St", "to": "E 6th St", "label": "2nd Ave, E 7th St to E 6th St", "tree_count": 3}, "geometry": {"type": "Polygon", "coordinates": [[[-73.98804560661203, 40.72785178532509], [-73.98836248506022, 40.7274164108921], [-73.98861094550038, 40.72752183331753], [-73.9882940670522, 40.72795720775053], [-73.98804560661203, 40.72785178532509]]]}}, {"type": "Feature", "properties": {"segment_id": "1G-11", "subzone_id": "1G", "zone": 1, "street": "2nd Ave", "from": "E 6th St", "to": "E 5th St", "label": "2nd Ave, E 6th St to E 5th St", "tree_count": 2}, "geometry": {"type": "Polygon", "coordinates": [[[-73.98847470337539, 40.72727182897303], [-73.98881219919684, 40.72680812734628], [-73.98904998238847, 40.72690901938677], [-73.98871248656701, 40.727372721013516], [-73.98847470337539, 40.72727182897303]]]}}, {"type": "Feature", "properties": {"segment_id": "1G-12", "subzone_id": "1G", "zone": 1, "street": "2nd Ave", "from": "E 5th St", "to": "E 4th St", "label": "2nd Ave, E 5th St to E 4th St", "tree_count": 7}, "geometry": {"type": "Polygon", "coordinates": [[[-73.98891597590088, 40.72666098796219], [-73.98925121430963, 40.726200387902566], [-73.98937228292523, 40.72625141167128], [-73.98949425661063, 40.72630316543032], [-73.98915882581107, 40.72676402982485], [-73.98891597590088, 40.72666098796219]]]}}, {"type": "Feature", "properties": {"segment_id": "1G-13", "subzone_id": "1G", "zone": 1, "street": "1st Ave", "from": "E 8th St / St Marks Pl", "to": "E 7th St", "label": "1st Ave, E 8th St / St Marks Pl to E 7th St", "tree_count": 1}, "geometry": {"type": "Polygon", "coordinates": [[[-73.98559515907152, 40.72703436010692], [-73.9856623972404, 40.72694197837562], [-73.98584255626176, 40.72701842032744], [-73.98577539553078, 40.727110695663114], [-73.98572666503198, 40.72709015843563], [-73.98559515907152, 40.72703436010692]]]}}, {"type": "Feature", "properties": {"segment_id": "1G-14", "subzone_id": "1G", "zone": 1, "street": "1st Ave", "from": "E 7th St", "to": "E 6th St", "label": "1st Ave, E 7th St to E 6th St", "tree_count": 5}, "geometry": {"type": "Polygon", "coordinates": [[[-73.98566241673062, 40.72684734900309], [-73.98599025683463, 40.72639691382767], [-73.9862756321186, 40.72651799931949], [-73.9859477920146, 40.726968434494914], [-73.98566241673062, 40.72684734900309]]]}}, {"type": "Feature", "properties": {"segment_id": "1G-15", "subzone_id": "1G", "zone": 1, "street": "1st Ave", "from": "E 6th St", "to": "E 5th St", "label": "1st Ave, E 6th St to E 5th St", "tree_count": 5}, "geometry": {"type": "Polygon", "coordinates": [[[-73.98607287358229, 40.72629270321125], [-73.9864403435838, 40.725787818627055], [-73.98671537494837, 40.72590451516637], [-73.98634790494685, 40.726409399750565], [-73.98607287358229, 40.72629270321125]]]}}, {"type": "Feature", "properties": {"segment_id": "1G-16", "subzone_id": "1G", "zone": 1, "street": "1st Ave", "from": "E 5th St", "to": "E 4th St", "label": "1st Ave, E 5th St to E 4th St", "tree_count": 4}, "geometry": {"type": "Polygon", "coordinates": [[[-73.9865240161866, 40.725652830576784], [-73.98685921125951, 40.725192290058345], [-73.9870075504655, 40.725254806882376], [-73.98715675140588, 40.72531811323811], [-73.98682132060634, 40.725778977632636], [-73.9865240161866, 40.725652830576784]]]}}, {"type": "Feature", "properties": {"segment_id": "1H-01", "subzone_id": "1H", "zone": 1, "street": "E 7th St", "from": "1st Ave", "to": "Ave A", "label": "E 7th St, 1st Ave to Ave A", "tree_count": 14}, "geometry": {"type": "Polygon", "coordinates": [[[-73.98361100522467, 40.72616040726938], [-73.9837026770653, 40.72603360092955], [-73.98564022672576, 40.726850171642404], [-73.98559388520115, 40.726914274196446], [-73.9855483196721, 40.72697687885287], [-73.98361100522467, 40.72616040726938]]]}}, {"type": "Feature", "properties": {"segment_id": "1H-02", "subzone_id": "1H", "zone": 1, "street": "E 7th St", "from": "Ave A", "to": "Ave B", "label": "E 7th St, Ave A to Ave B", "tree_count": 32}, "geometry": {"type": "Polygon", "coordinates": [[[-73.98336077979772, 40.726058772691616], [-73.98126161080174, 40.72517408830987], [-73.98135751788472, 40.72504142351252], [-73.9834566868807, 40.72592610789427], [-73.98336077979772, 40.726058772691616]]]}}, {"type": "Feature", "properties": {"segment_id": "1H-03", "subzone_id": "1H", "zone": 1, "street": "E 6th St", "from": "1st Ave", "to": "Ave A", "label": "E 6th St, 1st Ave to Ave A", "tree_count": 25}, "geometry": {"type": "Polygon", "coordinates": [[[-73.98402961513399, 40.72558529951807], [-73.9841299589863, 40.72544649749826], [-73.98606750864677, 40.726263068211125], [-73.98601683111633, 40.726333168605144], [-73.98596690708246, 40.726401761619485], [-73.98402961513399, 40.72558529951807]]]}}, {"type": "Feature", "properties": {"segment_id": "1H-04", "subzone_id": "1H", "zone": 1, "street": "E 6th St", "from": "Ave A", "to": "Ave B", "label": "E 6th St, Ave A to Ave B", "tree_count": 28}, "geometry": {"type": "Polygon", "coordinates": [[[-73.98378175882127, 40.72548038783031], [-73.98168258982528, 40.72459570344857], [-73.9817824306915, 40.72445759719124], [-73.98388159968748, 40.72534228157298], [-73.98378175882127, 40.72548038783031]]]}}, {"type": "Feature", "properties": {"segment_id": "1H-05", "subzone_id": "1H", "zone": 1, "street": "E 5th St", "from": "Ave A", "to": "Ave B", "label": "E 5th St, Ave A to Ave B", "tree_count": 29}, "geometry": {"type": "Polygon", "coordinates": [[[-73.98422562368863, 40.72487054279543], [-73.98212645469265, 40.72398585841369], [-73.98222674722128, 40.723847127388076], [-73.98432591621726, 40.724731811769814], [-73.98422562368863, 40.72487054279543]]]}}, {"type": "Feature", "properties": {"segment_id": "1H-06", "subzone_id": "1H", "zone": 1, "street": "Ave A", "from": "E 7th St", "to": "E 6th St", "label": "Ave A, E 7th St to E 6th St", "tree_count": 4}, "geometry": {"type": "Polygon", "coordinates": [[[-73.98347608749418, 40.72592602670011], [-73.98379296594236, 40.72549065226711], [-73.98401162068126, 40.72558342805424], [-73.98369474223307, 40.72601880248724], [-73.98347608749418, 40.72592602670011]]]}}, {"type": "Feature", "properties": {"segment_id": "1H-07", "subzone_id": "1H", "zone": 1, "street": "Ave A", "from": "E 6th St", "to": "E 5th St", "label": "Ave A, E 6th St to E 5th St", "tree_count": 2}, "geometry": {"type": "Polygon", "coordinates": [[[-73.98388770970733, 40.725338655849924], [-73.98422520552879, 40.724874954223175], [-73.98446813211955, 40.7249780286216], [-73.98413063629809, 40.72544173024835], [-73.98388770970733, 40.725338655849924]]]}}, {"type": "Feature", "properties": {"segment_id": "1H-08", "subzone_id": "1H", "zone": 1, "street": "Ave A", "from": "E 5th St", "to": "E 4th St", "label": "Ave A, E 5th St to E 4th St", "tree_count": 8}, "geometry": {"type": "Polygon", "coordinates": [[[-73.9843434815008, 40.72473396691705], [-73.98467873889388, 40.72427334077394], [-73.98478786095676, 40.724319329727145], [-73.98489790707372, 40.7243660225872], [-73.98456247627418, 40.72482688698172], [-73.9843434815008, 40.72473396691705]]]}}, {"type": "Feature", "properties": {"segment_id": "1H-09", "subzone_id": "1H", "zone": 1, "street": "Ave B", "from": "E 7th St", "to": "E 6th St", "label": "Ave B, E 7th St to E 6th St", "tree_count": 4}, "geometry": {"type": "Polygon", "coordinates": [[[-73.98117462058265, 40.7249561450834], [-73.98149149903082, 40.7245207706504], [-73.98166800658721, 40.72459566327593], [-73.98135112813904, 40.72503103770892], [-73.98117462058265, 40.7249561450834]]]}}, {"type": "Feature", "properties": {"segment_id": "1H-10", "subzone_id": "1H", "zone": 1, "street": "Ave B", "from": "E 6th St", "to": "E 5th St", "label": "Ave B, E 6th St to E 5th St", "tree_count": 1}, "geometry": {"type": "Polygon", "coordinates": [[[-73.9816012758742, 40.724375152808356], [-73.98193877169565, 40.72391145118161], [-73.98210948494712, 40.72398388526814], [-73.98177198912566, 40.72444758689489], [-73.9816012758742, 40.724375152808356]]]}}, {"type": "Feature", "properties": {"segment_id": "1H-11", "subzone_id": "1H", "zone": 1, "street": "Ave B", "from": "E 5th St", "to": "E 4th St", "label": "Ave B, E 5th St to E 4th St", "tree_count": 8}, "geometry": {"type": "Polygon", "coordinates": [[[-73.98203291428126, 40.72376022401546], [-73.98236819073144, 40.7232995716889], [-73.98246532045378, 40.72334050652955], [-73.98256339328769, 40.72338211909376], [-73.98222796248814, 40.72384298348828], [-73.98203291428126, 40.72376022401546]]]}}, {"type": "Feature", "properties": {"segment_id": "1I-01", "subzone_id": "1I", "zone": 1, "street": "E 7th St", "from": "Ave B", "to": "Ave C", "label": "E 7th St, Ave B to Ave C", "tree_count": 36}, "geometry": {"type": "Polygon", "coordinates": [[[-73.97892187430617, 40.72418638239507], [-73.97901596885164, 40.72405622481528], [-73.98115797640814, 40.72495896329628], [-73.9811106114894, 40.725024481474414], [-73.9810636393888, 40.72508901868665], [-73.97892187430617, 40.72418638239507]]]}}, {"type": "Feature", "properties": {"segment_id": "1I-02", "subzone_id": "1I", "zone": 1, "street": "E 7th St", "from": "Ave C", "to": "Ave D", "label": "E 7th St, Ave C to Ave D", "tree_count": 39}, "geometry": {"type": "Polygon", "coordinates": [[[-73.9786957188744, 40.724093540133694], [-73.97654224914018, 40.72318597097463], [-73.97663908077621, 40.723052027276516], [-73.97879255051043, 40.72395959643558], [-73.9786957188744, 40.724093540133694]]]}}, {"type": "Feature", "properties": {"segment_id": "1I-03", "subzone_id": "1I", "zone": 1, "street": "E 6th St", "from": "Ave B", "to": "Ave C", "label": "E 6th St, Ave B to Ave C", "tree_count": 20}, "geometry": {"type": "Polygon", "coordinates": [[[-73.97934315043462, 40.723607586559304], [-73.9794405845535, 40.72347280946845], [-73.98158259211, 40.72437554794945], [-73.98153355740313, 40.72444337588509], [-73.98148490685294, 40.72451021919937], [-73.97934315043462, 40.723607586559304]]]}}, {"type": "Feature", "properties": {"segment_id": "1I-04", "subzone_id": "1I", "zone": 1, "street": "E 6th St", "from": "Ave C", "to": "Ave D", "label": "E 6th St, Ave C to Ave D", "tree_count": 34}, "geometry": {"type": "Polygon", "coordinates": [[[-73.97910523148877, 40.72353101634128], [-73.97695670015703, 40.7226255284475], [-73.97708039839465, 40.72245442115162], [-73.97922892972639, 40.7233599090454], [-73.97910523148877, 40.72353101634128]]]}}, {"type": "Feature", "properties": {"segment_id": "1I-05", "subzone_id": "1I", "zone": 1, "street": "E 6th St", "from": "Ave D", "to": "FDR Dr", "label": "E 6th St, Ave D to FDR Dr", "tree_count": 11}, "geometry": {"type": "Polygon", "coordinates": [[[-73.97672055623045, 40.722516531172104], [-73.97537863811823, 40.72195098642667], [-73.97549183539724, 40.72179440472683], [-73.97683375350947, 40.72235994947226], [-73.97672055623045, 40.722516531172104]]]}}, {"type": "Feature", "properties": {"segment_id": "1I-06", "subzone_id": "1I", "zone": 1, "street": "E 6th St", "from": "FDR Dr", "to": "the district edge", "label": "E 6th St, FDR Dr to the district edge", "tree_count": 1}, "geometry": {"type": "Polygon", "coordinates": [[[-73.97299638498957, 40.720743985405804], [-73.97532310645917, 40.72172457065109], [-73.97521132314778, 40.7218791964607], [-73.97293294679585, 40.720918986025936], [-73.97296339591489, 40.72078961799905], [-73.97299638498957, 40.720743985405804]]]}}, {"type": "Feature", "properties": {"segment_id": "1I-07", "subzone_id": "1I", "zone": 1, "street": "E 5th St", "from": "Ave B", "to": "Ave C", "label": "E 5th St, Ave B to Ave C", "tree_count": 31}, "geometry": {"type": "Polygon", "coordinates": [[[-73.97979309104583, 40.7229893371678], [-73.97987882533943, 40.72287074402191], [-73.9820207157056, 40.723773433113635], [-73.98195494596678, 40.72386441001339], [-73.98193487781857, 40.723891982600584], [-73.97979309104583, 40.7229893371678]]]}}, {"type": "Feature", "properties": {"segment_id": "1I-08", "subzone_id": "1I", "zone": 1, "street": "E 5th St", "from": "Ave C", "to": "Ave D", "label": "E 5th St, Ave C to Ave D", "tree_count": 37}, "geometry": {"type": "Polygon", "coordinates": [[[-73.97956266614086, 40.722902400714226], [-73.97739345504854, 40.72198819743771], [-73.9774904653791, 40.721854006557905], [-73.97965967647143, 40.72276820983442], [-73.97956266614086, 40.722902400714226]]]}}, {"type": "Feature", "properties": {"segment_id": "1I-09", "subzone_id": "1I", "zone": 1, "street": "Ave C", "from": "E 7th St", "to": "E 6th St", "label": "Ave C, E 7th St to E 6th St", "tree_count": 10}, "geometry": {"type": "Polygon", "coordinates": [[[-73.97880504774108, 40.72395745503431], [-73.97912192618926, 40.72352208060131], [-73.97933014222149, 40.723610427217444], [-73.9790132637733, 40.72404580165045], [-73.97880504774108, 40.72395745503431]]]}}, {"type": "Feature", "properties": {"segment_id": "1I-10", "subzone_id": "1I", "zone": 1, "street": "Ave C", "from": "E 6th St", "to": "E 5th St", "label": "Ave C, E 6th St to E 5th St", "tree_count": 5}, "geometry": {"type": "Polygon", "coordinates": [[[-73.97922858098507, 40.72337513806619], [-73.97956607680652, 40.72291143643944], [-73.97977474262893, 40.722999973902745], [-73.97943724680748, 40.723463675529494], [-73.97922858098507, 40.72337513806619]]]}}, {"type": "Feature", "properties": {"segment_id": "1I-11", "subzone_id": "1I", "zone": 1, "street": "Ave C", "from": "E 5th St", "to": "E 4th St", "label": "Ave C, E 5th St to E 4th St", "tree_count": 6}, "geometry": {"type": "Polygon", "coordinates": [[[-73.98024274234317, 40.72240418673567], [-73.97990731154361, 40.7228650511302], [-73.97964612801849, 40.72275423026598], [-73.97998135183703, 40.72229365025253], [-73.98011160185189, 40.722348543476514], [-73.98024274234317, 40.72240418673567]]]}}, {"type": "Feature", "properties": {"segment_id": "1I-12", "subzone_id": "1I", "zone": 1, "street": "Ave D", "from": "E 7th St", "to": "E 6th St", "label": "Ave D, E 7th St to E 6th St", "tree_count": 2}, "geometry": {"type": "Polygon", "coordinates": [[[-73.97642337902897, 40.722953712412135], [-73.97674025747716, 40.72251833797914], [-73.97694856697774, 40.72260672425415], [-73.97663168852955, 40.723042098687145], [-73.97642337902897, 40.722953712412135]]]}}, {"type": "Feature", "properties": {"segment_id": "1I-13", "subzone_id": "1I", "zone": 1, "street": "Ave D", "from": "E 6th St", "to": "E 5th St", "label": "Ave D, E 6th St to E 5th St", "tree_count": 3}, "geometry": {"type": "Polygon", "coordinates": [[[-73.97684769622015, 40.72237172807488], [-73.9771851920416, 40.72190802644813], [-73.97739238343802, 40.72199593830857], [-73.97705488761656, 40.72245963993532], [-73.97684769622015, 40.72237172807488]]]}}, {"type": "Feature", "properties": {"segment_id": "1I-14", "subzone_id": "1I", "zone": 1, "street": "Ave D", "from": "E 5th St", "to": "E 4th St", "label": "Ave D, E 5th St to E 4th St", "tree_count": 5}, "geometry": {"type": "Polygon", "coordinates": [[[-73.97784042766673, 40.72139168397594], [-73.9775049968672, 40.721852548370464], [-73.97728519873905, 40.721759287440236], [-73.97762045549283, 40.72129866217552], [-73.97772997987379, 40.7213448206837], [-73.97784042766673, 40.72139168397594]]]}}, {"type": "Feature", "properties": {"segment_id": "1I-15", "subzone_id": "1I", "zone": 1, "street": "FDR Dr", "from": "E 7th St", "to": "E 6th St", "label": "FDR Dr, E 7th St to E 6th St", "tree_count": 1}, "geometry": {"type": "Polygon", "coordinates": [[[-73.97493996503245, 40.722328684584596], [-73.97526831702756, 40.72187754609756], [-73.97537188311708, 40.721921489464734], [-73.97504353112197, 40.72237262795177], [-73.97493996503245, 40.722328684584596]]]}}, {"type": "Feature", "properties": {"segment_id": "1J-01", "subzone_id": "1J", "zone": 1, "street": "E 4th St", "from": "Bowery / 3rd Ave", "to": "2nd Ave", "label": "E 4th St, Bowery / 3rd Ave to 2nd Ave", "tree_count": 17}, "geometry": {"type": "Polygon", "coordinates": [[[-73.99146049200513, 40.72712097751958], [-73.98953700799127, 40.726310334703854], [-73.98963008245407, 40.7261815881675], [-73.99155356646793, 40.72699223098322], [-73.99146049200513, 40.72712097751958]]]}}, {"type": "Feature", "properties": {"segment_id": "1J-02", "subzone_id": "1J", "zone": 1, "street": "E 4th St", "from": "2nd Ave", "to": "1st Ave", "label": "E 4th St, 2nd Ave to 1st Ave", "tree_count": 37}, "geometry": {"type": "Polygon", "coordinates": [[[-73.98921954249796, 40.72617887501835], [-73.98717098192972, 40.72531551930795], [-73.98726664359661, 40.725183193985785], [-73.98931520416487, 40.726046549696186], [-73.98921954249796, 40.72617887501835]]]}}, {"type": "Feature", "properties": {"segment_id": "1J-03", "subzone_id": "1J", "zone": 1, "street": "E 3rd St", "from": "Bowery / 3rd Ave", "to": "2nd Ave", "label": "E 3rd St, Bowery / 3rd Ave to 2nd Ave", "tree_count": 18}, "geometry": {"type": "Polygon", "coordinates": [[[-73.9917387576667, 40.72645426866075], [-73.98997369376333, 40.72571039121637], [-73.99007534468205, 40.7255697811789], [-73.99182814248441, 40.72630848913574], [-73.99181248570824, 40.72635228332886], [-73.9917387576667, 40.72645426866075]]]}}, {"type": "Feature", "properties": {"segment_id": "1J-04", "subzone_id": "1J", "zone": 1, "street": "E 3rd St", "from": "2nd Ave", "to": "1st Ave", "label": "E 3rd St, 2nd Ave to 1st Ave", "tree_count": 24}, "geometry": {"type": "Polygon", "coordinates": [[[-73.98965884439548, 40.725575312739196], [-73.98761028382722, 40.724711957028795], [-73.98770928969915, 40.72457500578885], [-73.9897578502674, 40.72543836149924], [-73.98965884439548, 40.725575312739196]]]}}, {"type": "Feature", "properties": {"segment_id": "1J-05", "subzone_id": "1J", "zone": 1, "street": "E 2nd St", "from": "Bowery / 3rd Ave", "to": "2nd Ave", "label": "E 2nd St, Bowery / 3rd Ave to 2nd Ave", "tree_count": 19}, "geometry": {"type": "Polygon", "coordinates": [[[-73.99201093205701, 40.72570388579699], [-73.99045549930845, 40.72504835636504], [-73.99054444023808, 40.72492532759555], [-73.99209087944628, 40.725577066744435], [-73.99207830510439, 40.72561069109855], [-73.99201093205701, 40.72570388579699]]]}}, {"type": "Feature", "properties": {"segment_id": "1J-06", "subzone_id": "1J", "zone": 1, "street": "E 2nd St", "from": "2nd Ave", "to": "1st Ave", "label": "E 2nd St, 2nd Ave to 1st Ave", "tree_count": 22}, "geometry": {"type": "Polygon", "coordinates": [[[-73.9901409454422, 40.72491286913119], [-73.98809238487397, 40.72404951342079], [-73.98817808975357, 40.723930960962186], [-73.99022665032182, 40.724794316672586], [-73.9901409454422, 40.72491286913119]]]}}, {"type": "Feature", "properties": {"segment_id": "1J-07", "subzone_id": "1J", "zone": 1, "street": "E 1st St", "from": "Bowery / 3rd Ave", "to": "2nd Ave", "label": "E 1st St, Bowery / 3rd Ave to 2nd Ave", "tree_count": 1}, "geometry": {"type": "Polygon", "coordinates": [[[-73.99215945027956, 40.72535087472728], [-73.99060765513397, 40.72469687834511], [-73.99071982404588, 40.724541719148256], [-73.99223716954828, 40.72518119689885], [-73.9922166109785, 40.7252408549889], [-73.99219263215387, 40.72530497544128], [-73.99215945027956, 40.72535087472728]]]}}, {"type": "Feature", "properties": {"segment_id": "1J-08", "subzone_id": "1J", "zone": 1, "street": "E 1st St", "from": "2nd Ave", "to": "1st Ave", "label": "E 1st St, 2nd Ave to 1st Ave", "tree_count": 2}, "geometry": {"type": "Polygon", "coordinates": [[[-73.9904680690721, 40.7246080082102], [-73.98827662387016, 40.723684434478265], [-73.98835549956705, 40.723575328581006], [-73.99054694476897, 40.72449890231294], [-73.9904680690721, 40.7246080082102]]]}}, {"type": "Feature", "properties": {"segment_id": "1J-09", "subzone_id": "1J", "zone": 1, "street": "E 1st St", "from": "1st Ave", "to": "Ave A", "label": "E 1st St, 1st Ave to Ave A", "tree_count": 1}, "geometry": {"type": "Polygon", "coordinates": [[[-73.98818485193573, 40.723638573242134], [-73.98802664977536, 40.7235718997248], [-73.98803920416478, 40.72355453369224], [-73.98809786644398, 40.723473934785325], [-73.98825576578479, 40.72354048068085], [-73.98818485193573, 40.723638573242134]]]}}, {"type": "Feature", "properties": {"segment_id": "1J-10", "subzone_id": "1J", "zone": 1, "street": "E Houston St", "from": "Bowery / 3rd Ave", "to": "2nd Ave", "label": "E Houston St, Bowery / 3rd Ave to 2nd Ave", "tree_count": 3}, "geometry": {"type": "Polygon", "coordinates": [[[-73.99265670751534, 40.72397741356727], [-73.99149932518391, 40.723666887887745], [-73.99156614632452, 40.72352169705887], [-73.99272077116883, 40.7238314829046], [-73.99270781661541, 40.72386636229612], [-73.99265670751534, 40.72397741356727]]]}}, {"type": "Feature", "properties": {"segment_id": "1J-11", "subzone_id": "1J", "zone": 1, "street": "E Houston St", "from": "2nd Ave", "to": "1st Ave", "label": "E Houston St, 2nd Ave to 1st Ave", "tree_count": 5}, "geometry": {"type": "Polygon", "coordinates": [[[-73.9911696173422, 40.72354031055698], [-73.98892968796854, 40.72293933750603], [-73.98898089472075, 40.72282807405358], [-73.99122082409441, 40.72342904710453], [-73.9911696173422, 40.72354031055698]]]}}, {"type": "Feature", "properties": {"segment_id": "1J-12", "subzone_id": "1J", "zone": 1, "street": "2nd Ave", "from": "E 4th St", "to": "E 3rd St", "label": "2nd Ave, E 4th St to E 3rd St", "tree_count": 5}, "geometry": {"type": "Polygon", "coordinates": [[[-73.98935764989162, 40.72605592755165], [-73.98969336864859, 40.725594667518656], [-73.98993424266249, 40.72569687100325], [-73.98959852390551, 40.72615813103624], [-73.98935764989162, 40.72605592755165]]]}}, {"type": "Feature", "properties": {"segment_id": "1J-13", "subzone_id": "1J", "zone": 1, "street": "2nd Ave", "from": "E 3rd St", "to": "E 2nd St", "label": "2nd Ave, E 3rd St to E 2nd St", "tree_count": 5}, "geometry": {"type": "Polygon", "coordinates": [[[-73.98979502885804, 40.72544852693129], [-73.99016522416557, 40.724939897919], [-73.99041328824666, 40.72504515216823], [-73.99004309293913, 40.725553781180516], [-73.98979502885804, 40.72544852693129]]]}}, {"type": "Feature", "properties": {"segment_id": "1J-14", "subzone_id": "1J", "zone": 1, "street": "2nd Ave", "from": "E 2nd St", "to": "E 1st St", "label": "2nd Ave, E 2nd St to E 1st St", "tree_count": 4}, "geometry": {"type": "Polygon", "coordinates": [[[-73.99027287742368, 40.72479630019812], [-73.9904109143496, 40.724606644673436], [-73.99065418240056, 40.72470986395433], [-73.99051614547464, 40.72489951947901], [-73.99027287742368, 40.72479630019812]]]}}, {"type": "Feature", "properties": {"segment_id": "1J-15", "subzone_id": "1J", "zone": 1, "street": "2nd Ave", "from": "E 1st St", "to": "E Houston St", "label": "2nd Ave, E 1st St to E Houston St", "tree_count": 8}, "geometry": {"type": "Polygon", "coordinates": [[[-73.99050202888475, 40.72445627171111], [-73.9911701324504, 40.72353833231592], [-73.99144141256345, 40.72365343718924], [-73.9907733089978, 40.724571376584436], [-73.99050202888475, 40.72445627171111]]]}}, {"type": "Feature", "properties": {"segment_id": "1J-16", "subzone_id": "1J", "zone": 1, "street": "1st Ave", "from": "E 4th St", "to": "E 3rd St", "label": "1st Ave, E 4th St to E 3rd St", "tree_count": 5}, "geometry": {"type": "Polygon", "coordinates": [[[-73.98696641703313, 40.72504807857308], [-73.98730768534755, 40.72457919373809], [-73.98760156015942, 40.7247038856022], [-73.98726029184499, 40.72517277043719], [-73.98696641703313, 40.72504807857308]]]}}, {"type": "Feature", "properties": {"segment_id": "1J-17", "subzone_id": "1J", "zone": 1, "street": "1st Ave", "from": "E 3rd St", "to": "E 2nd St", "label": "1st Ave, E 3rd St to E 2nd St", "tree_count": 2}, "geometry": {"type": "Polygon", "coordinates": [[[-73.9874160818276, 40.724445890862235], [-73.98778627713513, 40.72393726184995], [-73.9880627703581, 40.72405457865967], [-73.98769257505056, 40.72456320767195], [-73.9874160818276, 40.724445890862235]]]}}, {"type": "Feature", "properties": {"segment_id": "1J-18", "subzone_id": "1J", "zone": 1, "street": "1st Ave", "from": "E 2nd St", "to": "E 1st St", "label": "1st Ave, E 2nd St to E 1st St", "tree_count": 5}, "geometry": {"type": "Polygon", "coordinates": [[[-73.98788812764874, 40.723791202009146], [-73.98802602989781, 40.72360173152341], [-73.98830933257965, 40.72372193760463], [-73.98817143033057, 40.723911408090366], [-73.98788812764874, 40.723791202009146]]]}}, {"type": "Feature", "properties": {"segment_id": "1K-01", "subzone_id": "1K", "zone": 1, "street": "E 4th St", "from": "1st Ave", "to": "Ave A", "label": "E 4th St, 1st Ave to Ave A", "tree_count": 12}, "geometry": {"type": "Polygon", "coordinates": [[[-73.98492284479248, 40.72435797479819], [-73.98500733763039, 40.724241098913005], [-73.98694488729086, 40.72505766962587], [-73.98690213526828, 40.72511680695166], [-73.98686017786535, 40.72517445423128], [-73.98492284479248, 40.72435797479819]]]}}, {"type": "Feature", "properties": {"segment_id": "1K-02", "subzone_id": "1K", "zone": 1, "street": "E 4th St", "from": "Ave A", "to": "Ave B", "label": "E 4th St, Ave A to Ave B", "tree_count": 30}, "geometry": {"type": "Polygon", "coordinates": [[[-73.9846680922709, 40.724262602386595], [-73.98256892327491, 40.72337791800486], [-73.98266670554445, 40.72324265932981], [-73.98476587454043, 40.72412734371155], [-73.9846680922709, 40.724262602386595]]]}}, {"type": "Feature", "properties": {"segment_id": "1K-03", "subzone_id": "1K", "zone": 1, "street": "E 3rd St", "from": "1st Ave", "to": "Ave A", "label": "E 3rd St, 1st Ave to Ave A", "tree_count": 23}, "geometry": {"type": "Polygon", "coordinates": [[[-73.98535689208632, 40.72376168102217], [-73.98545523833661, 40.72362564221294], [-73.98739278799708, 40.724442212925794], [-73.98734310926869, 40.72451093171308], [-73.98729418921742, 40.724578145307774], [-73.98535689208632, 40.72376168102217]]]}}, {"type": "Feature", "properties": {"segment_id": "1K-04", "subzone_id": "1K", "zone": 1, "street": "E 3rd St", "from": "Ave A", "to": "Ave B", "label": "E 3rd St, Ave A to Ave B", "tree_count": 33}, "geometry": {"type": "Polygon", "coordinates": [[[-73.9851136237072, 40.72365042301185], [-73.98301023119768, 40.72276395865123], [-73.98309889859463, 40.722641308249585], [-73.98520229110416, 40.72352777261021], [-73.9851136237072, 40.72365042301185]]]}}, {"type": "Feature", "properties": {"segment_id": "1K-05", "subzone_id": "1K", "zone": 1, "street": "E 2nd St", "from": "1st Ave", "to": "Ave A", "label": "E 2nd St, 1st Ave to Ave A", "tree_count": 9}, "geometry": {"type": "Polygon", "coordinates": [[[-73.98583734540671, 40.72310151665437], [-73.98592568611737, 40.722979318146066], [-73.98786311956273, 40.723795839880644], [-73.98779604659977, 40.72388861948316], [-73.98777466849653, 40.72391799188016], [-73.98583734540671, 40.72310151665437]]]}}, {"type": "Feature", "properties": {"segment_id": "1K-06", "subzone_id": "1K", "zone": 1, "street": "E 2nd St", "from": "Ave A", "to": "Ave B", "label": "E 2nd St, Ave A to Ave B", "tree_count": 30}, "geometry": {"type": "Polygon", "coordinates": [[[-73.98558301067409, 40.723005566330414], [-73.98348384167811, 40.72212088194867], [-73.98358463624244, 40.721981456475234], [-73.98568380523842, 40.72286614085697], [-73.98558301067409, 40.723005566330414]]]}}, {"type": "Feature", "properties": {"segment_id": "1K-07", "subzone_id": "1K", "zone": 1, "street": "E 1st St", "from": "Ave B", "to": "Ave C", "label": "E 1st St, Ave B to Ave C", "tree_count": 1}, "geometry": {"type": "Polygon", "coordinates": [[[-73.98370670707604, 40.721635626217434], [-73.98364945062093, 40.72171482699987], [-73.98353434239927, 40.721666315209674], [-73.98354006807511, 40.72165839508947], [-73.9835918662408, 40.721587227115926], [-73.98370670707604, 40.721635626217434]]]}}, {"type": "Feature", "properties": {"segment_id": "1K-08", "subzone_id": "1K", "zone": 1, "street": "E Houston St", "from": "1st Ave", "to": "Ave A", "label": "E Houston St, 1st Ave to Ave A", "tree_count": 7}, "geometry": {"type": "Polygon", "coordinates": [[[-73.98645316696867, 40.72230581201206], [-73.98651704208298, 40.72216702239086], [-73.98862776528448, 40.72273332942583], [-73.98861205324212, 40.72276746898755], [-73.98854046099228, 40.72286583299859], [-73.98645316696867, 40.72230581201206]]]}}, {"type": "Feature", "properties": {"segment_id": "1K-09", "subzone_id": "1K", "zone": 1, "street": "E Houston St", "from": "Ave A", "to": "Ave B", "label": "E Houston St, Ave A to Ave B", "tree_count": 21}, "geometry": {"type": "Polygon", "coordinates": [[[-73.98620129221425, 40.72219158886271], [-73.98390613296554, 40.721575797636284], [-73.9839509000456, 40.721478526482244], [-73.9862460592943, 40.72209431770867], [-73.98620129221425, 40.72219158886271]]]}}, {"type": "Feature", "properties": {"segment_id": "1K-10", "subzone_id": "1K", "zone": 1, "street": "E Houston St", "from": "Ave B", "to": "Ave C", "label": "E Houston St, Ave B to Ave C", "tree_count": 1}, "geometry": {"type": "Polygon", "coordinates": [[[-73.98371671305681, 40.72141569411315], [-73.9838424255815, 40.72144942278352], [-73.9838227855292, 40.72149209723425], [-73.98368751899851, 40.72145580522405], [-73.98371671305681, 40.72141569411315], [-73.98371671305681, 40.72141569411315]]]}}, {"type": "Feature", "properties": {"segment_id": "1K-11", "subzone_id": "1K", "zone": 1, "street": "Ave A", "from": "E 4th St", "to": "E 3rd St", "label": "Ave A, E 4th St to E 3rd St", "tree_count": 4}, "geometry": {"type": "Polygon", "coordinates": [[[-73.98477890498879, 40.72412625440157], [-73.98511462374577, 40.723664994368576], [-73.98534414362834, 40.72376238026506], [-73.98500842487137, 40.72422364029805], [-73.98477890498879, 40.72412625440157]]]}}, {"type": "Feature", "properties": {"segment_id": "1K-12", "subzone_id": "1K", "zone": 1, "street": "Ave A", "from": "E 3rd St", "to": "E 2nd St", "label": "Ave A, E 3rd St to E 2nd St", "tree_count": 7}, "geometry": {"type": "Polygon", "coordinates": [[[-73.98521436955693, 40.723518041496924], [-73.98558456486447, 40.72300941248464], [-73.9858251036108, 40.72311147371432], [-73.98545490830327, 40.723620102726606], [-73.98521436955693, 40.723518041496924]]]}}, {"type": "Feature", "properties": {"segment_id": "1K-13", "subzone_id": "1K", "zone": 1, "street": "Ave A", "from": "E 2nd St", "to": "E 1st St", "label": "Ave A, E 2nd St to E 1st St", "tree_count": 2}, "geometry": {"type": "Polygon", "coordinates": [[[-73.98570394935436, 40.7228707923566], [-73.98584535083647, 40.72267651410748], [-73.9860576310891, 40.72276658518313], [-73.98591622960699, 40.722960863432256], [-73.98570394935436, 40.7228707923566]]]}}, {"type": "Feature", "properties": {"segment_id": "1K-14", "subzone_id": "1K", "zone": 1, "street": "Ave B", "from": "E 4th St", "to": "E 3rd St", "label": "Ave B, E 4th St to E 3rd St", "tree_count": 5}, "geometry": {"type": "Polygon", "coordinates": [[[-73.98248042849835, 40.72315764162848], [-73.98281614725533, 40.72269638159549], [-73.9829975391132, 40.722773346643116], [-73.98266182035623, 40.72323460667611], [-73.98248042849835, 40.72315764162848]]]}}, {"type": "Feature", "properties": {"segment_id": "1K-15", "subzone_id": "1K", "zone": 1, "street": "Ave B", "from": "E 3rd St", "to": "E 2nd St", "label": "Ave B, E 3rd St to E 2nd St", "tree_count": 6}, "geometry": {"type": "Polygon", "coordinates": [[[-73.98293009365442, 40.72255545407105], [-73.98330028896194, 40.72204682505877], [-73.98346429850774, 40.722116414745166], [-73.98309410320022, 40.722625043757446], [-73.98293009365442, 40.72255545407105]]]}}, {"type": "Feature", "properties": {"segment_id": "1K-16", "subzone_id": "1K", "zone": 1, "street": "Ave B", "from": "E 2nd St", "to": "E 1st St", "label": "Ave B, E 2nd St to E 1st St", "tree_count": 3}, "geometry": {"type": "Polygon", "coordinates": [[[-73.98339970831272, 40.721899733669105], [-73.98353960048036, 40.72170752913921], [-73.9837152818107, 40.72178207119482], [-73.98357538964306, 40.721974275724726], [-73.98339970831272, 40.721899733669105]]]}}, {"type": "Feature", "properties": {"segment_id": "1L-01", "subzone_id": "1L", "zone": 1, "street": "E 4th St", "from": "Ave B", "to": "Ave C", "label": "E 4th St, Ave B to Ave C", "tree_count": 29}, "geometry": {"type": "Polygon", "coordinates": [[[-73.98022509575753, 40.7223958710525], [-73.98032924753319, 40.72225180167012], [-73.98245585352518, 40.723148049238], [-73.98235116131967, 40.723291890858896], [-73.98022509575753, 40.7223958710525]]]}}, {"type": "Feature", "properties": {"segment_id": "1L-02", "subzone_id": "1L", "zone": 1, "street": "E 4th St", "from": "Ave C", "to": "Ave D", "label": "E 4th St, Ave C to Ave D", "tree_count": 31}, "geometry": {"type": "Polygon", "coordinates": [[[-73.98000389921874, 40.7222961693339], [-73.97785536788702, 40.72139068144012], [-73.97795233896726, 40.72125654485386], [-73.980100870299, 40.72216203274764], [-73.98000389921874, 40.7222961693339]]]}}, {"type": "Feature", "properties": {"segment_id": "1L-03", "subzone_id": "1L", "zone": 1, "street": "E 3rd St", "from": "Ave B", "to": "Ave C", "label": "E 3rd St, Ave B to Ave C", "tree_count": 29}, "geometry": {"type": "Polygon", "coordinates": [[[-73.9806702230523, 40.72178425071212], [-73.98076606823847, 40.721651671534396], [-73.98289228517685, 40.72254775513756], [-73.98282145996264, 40.72264572509346], [-73.98279631016534, 40.722680279601036], [-73.9806702230523, 40.72178425071212]]]}}, {"type": "Feature", "properties": {"segment_id": "1L-04", "subzone_id": "1L", "zone": 1, "street": "E 3rd St", "from": "Ave C", "to": "Ave D", "label": "E 3rd St, Ave C to Ave D", "tree_count": 40}, "geometry": {"type": "Polygon", "coordinates": [[[-73.98044500971433, 40.721690105286484], [-73.97829647838259, 40.7207846173927], [-73.97839317647173, 40.72065085842518], [-73.98054170780345, 40.72155634631897], [-73.98044500971433, 40.721690105286484]]]}}, {"type": "Feature", "properties": {"segment_id": "1L-05", "subzone_id": "1L", "zone": 1, "street": "E 2nd St", "from": "Ave B", "to": "Ave C", "label": "E 2nd St, Ave B to Ave C", "tree_count": 26}, "geometry": {"type": "Polygon", "coordinates": [[[-73.98114411458037, 40.72113316303419], [-73.98124307781153, 40.72099627077766], [-73.9833692947499, 40.72189235438083], [-73.98329691051379, 40.72199248087533], [-73.98327019360384, 40.7220291885138], [-73.98114411458037, 40.72113316303419]]]}}, {"type": "Feature", "properties": {"segment_id": "1L-06", "subzone_id": "1L", "zone": 1, "street": "E 2nd St", "from": "Ave C", "to": "Ave D", "label": "E 2nd St, Ave C to Ave D", "tree_count": 15}, "geometry": {"type": "Polygon", "coordinates": [[[-73.98103240764655, 40.720882008307115], [-73.9809052109724, 40.72105795486367], [-73.97875667964065, 40.72015246696988], [-73.97879758016278, 40.720095890757676], [-73.97981452083948, 40.720368735941236], [-73.98103240764655, 40.720882008307115]]]}}, {"type": "Feature", "properties": {"segment_id": "1L-07", "subzone_id": "1L", "zone": 1, "street": "E 1st St", "from": "Ave B", "to": "Ave C", "label": "E 1st St, Ave B to Ave C", "tree_count": 14}, "geometry": {"type": "Polygon", "coordinates": [[[-73.98362600235762, 40.72153952530545], [-73.98354006800406, 40.72165839518708], [-73.9834997306706, 40.72171381657589], [-73.98160568977926, 40.7209155824184], [-73.98164581892841, 40.7208600732185], [-73.98265849558395, 40.72113177436518], [-73.98362600235762, 40.72153952530545]]]}}, {"type": "Feature", "properties": {"segment_id": "1L-08", "subzone_id": "1L", "zone": 1, "street": "E Houston St", "from": "Ave B", "to": "Ave C", "label": "E Houston St, Ave B to Ave C", "tree_count": 5}, "geometry": {"type": "Polygon", "coordinates": [[[-73.98369335781018, 40.72144778300186], [-73.98364268113377, 40.72151741010771], [-73.9813421664375, 40.720900182014695], [-73.98139197077866, 40.72079196575992], [-73.983709069852, 40.7214136434413], [-73.98369335781018, 40.72144778300186]]]}}, {"type": "Feature", "properties": {"segment_id": "1L-09", "subzone_id": "1L", "zone": 1, "street": "E Houston St", "from": "Ave C", "to": "Ave D", "label": "E Houston St, Ave C to Ave D", "tree_count": 9}, "geometry": {"type": "Polygon", "coordinates": [[[-73.98111054534951, 40.72083767730263], [-73.97874766744938, 40.72020371716203], [-73.9787973240006, 40.720095822029364], [-73.98116020190072, 40.72072978216997], [-73.98111054534951, 40.72083767730263]]]}}, {"type": "Feature", "properties": {"segment_id": "1L-10", "subzone_id": "1L", "zone": 1, "street": "E Houston St", "from": "FDR Dr", "to": "the district edge", "label": "E Houston St, FDR Dr to the district edge", "tree_count": 2}, "geometry": {"type": "Polygon", "coordinates": [[[-73.97681963727702, 40.719719639374574], [-73.97350492022157, 40.718830300788596], [-73.97353756012288, 40.71872298251844], [-73.97355327217949, 40.718688842925765], [-73.97688289930534, 40.71958218188363], [-73.97681963727702, 40.719719639374574]]]}}, {"type": "Feature", "properties": {"segment_id": "1L-11", "subzone_id": "1L", "zone": 1, "street": "Ave C", "from": "E 4th St", "to": "E 3rd St", "label": "Ave C, E 4th St to E 3rd St", "tree_count": 7}, "geometry": {"type": "Polygon", "coordinates": [[[-73.98011920319524, 40.72216249346215], [-73.98045492195222, 40.72170123342916], [-73.98065132720902, 40.72178456870188], [-73.98031560845205, 40.72224582873487], [-73.98011920319524, 40.72216249346215]]]}}, {"type": "Feature", "properties": {"segment_id": "1L-12", "subzone_id": "1L", "zone": 1, "street": "Ave C", "from": "E 3rd St", "to": "E 2nd St", "label": "Ave C, E 3rd St to E 2nd St", "tree_count": 9}, "geometry": {"type": "Polygon", "coordinates": [[[-73.9805727159014, 40.72156193843047], [-73.98094291120894, 40.72105330941818], [-73.98111423905344, 40.72112600427818], [-73.98074404374591, 40.72163463329046], [-73.9805727159014, 40.72156193843047]]]}}, {"type": "Feature", "properties": {"segment_id": "1L-13", "subzone_id": "1L", "zone": 1, "street": "Ave D", "from": "E 4th St", "to": "E 3rd St", "label": "Ave D, E 4th St to E 3rd St", "tree_count": 4}, "geometry": {"type": "Polygon", "coordinates": [[[-73.97772236780445, 40.72115231557788], [-73.97805808656142, 40.72069105554489], [-73.97828491864396, 40.72078730100067], [-73.97794919988698, 40.72124856103367], [-73.97772236780445, 40.72115231557788]]]}}, {"type": "Feature", "properties": {"segment_id": "1L-14", "subzone_id": "1L", "zone": 1, "street": "FDR Dr", "from": "E 3rd St", "to": "E 2nd St", "label": "FDR Dr, E 3rd St to E 2nd St", "tree_count": 2}, "geometry": {"type": "Polygon", "coordinates": [[[-73.97706040292749, 40.71963425924518], [-73.97679788858946, 40.71999494023099], [-73.9766579451571, 40.719935561860524], [-73.97690987740862, 40.71958942010874], [-73.97703185764658, 40.71962214740659], [-73.97706040292749, 40.71963425924518]]]}}]}