{"type": "FeatureCollection", "features": [{"type": "Feature", "properties": {"subzone_id": "1A", "zone": 1, "region": "EV", "region_label": "East Village", "label": "4th Ave to 1st Ave, E 14th St to E 10th St", "bounds": "4th Ave to 1st Ave, E 14th St to E 10th St", "streets": "E 14th St to E 11th St", "avenues": "Bowery / 3rd Ave to 1st Ave", "contains": "E 14th St to E 11th St, Bowery / 3rd Ave to 1st Ave", "blocks": 24, "tree_count": 259, "area_m2": 205689}, "geometry": {"type": "Polygon", "coordinates": [[[-73.9887807611186, 40.7339736608904], [-73.9875733965622, 40.7334652517733], [-73.9871819404304, 40.7333004088379], [-73.984946948952, 40.732357933788], [-73.9835619636863, 40.7317784858388], [-73.9834678845233, 40.7317393420192], [-73.9832161138194, 40.7316324291796], [-73.9829658489019, 40.7315291034247], [-73.9825577344439, 40.7313583949099], [-73.9824702042364, 40.7313231455873], [-73.98240392106587, 40.73129711826374], [-73.98423646035319, 40.72877930502106], [-73.99037412173831, 40.73136599202826], [-73.9902133543416, 40.7320045951209], [-73.9901149475778, 40.7324087651424], [-73.9901037020477, 40.7324536331482], [-73.990036001965, 40.7327624122447], [-73.9898699659957, 40.7335353755828], [-73.9898561216038, 40.7336487538883], [-73.9898474574445, 40.7337624293435], [-73.9898439839798, 40.7338762650343], [-73.9898457054197, 40.7339901238531], [-73.9898526194227, 40.7341038686811], [-73.9898647179832, 40.734217362509], [-73.9898819865555, 40.7343304686388], [-73.9899044043667, 40.7344430508388], [-73.9888407951994, 40.7339987405835], [-73.9887807611186, 40.7339736608904], [-73.9887807611186, 40.7339736608904]]]}}]}